{
 "type": "FeatureCollection",
 "features": [
  {
   "type": "Feature",
   "geometry": {
    "type": "MultiPolygon",
    "coordinates": [
     [
      [
       [
        -3.8403,
        56.0346
       ],
       [
        -3.8405,
        56.0345
       ],
       [
        -3.8418,
        56.0345
       ],
       [
        -3.844,
        56.0341
       ],
       [
        -3.8454,
        56.0338
       ],
       [
        -3.846,
        56.0335
       ],
       [
        -3.8473,
        56.033
       ],
       [
        -3.8478,
        56.0328
       ],
       [
        -3.8482,
        56.0326
       ],
       [
        -3.8489,
        56.0322
       ],
       [
        -3.849,
        56.0322
       ],
       [
        -3.8486,
        56.0319
       ],
       [
        -3.8478,
        56.0314
       ],
       [
        -3.8474,
        56.0312
       ],
       [
        -3.8467,
        56.0309
       ],
       [
        -3.8465,
        56.0308
       ],
       [
        -3.8455,
        56.0305
       ],
       [
        -3.8449,
        56.0304
       ],
       [
        -3.8446,
        56.0305
       ],
       [
        -3.8446,
        56.0305
       ],
       [
        -3.8443,
        56.0304
       ],
       [
        -3.8442,
        56.0302
       ],
       [
        -3.844,
        56.0302
       ],
       [
        -3.8437,
        56.0301
       ],
       [
        -3.8426,
        56.0301
       ],
       [
        -3.8406,
        56.0302
       ],
       [
        -3.8407,
        56.0303
       ],
       [
        -3.8416,
        56.031
       ],
       [
        -3.8427,
        56.0319
       ],
       [
        -3.8427,
        56.032
       ],
       [
        -3.8402,
        56.0328
       ],
       [
        -3.8402,
        56.0327
       ],
       [
        -3.8387,
        56.0329
       ],
       [
        -3.8376,
        56.0338
       ],
       [
        -3.8386,
        56.0341
       ],
       [
        -3.8403,
        56.0346
       ]
      ]
     ]
    ]
   },
   "properties": {
    "slug": "larbert-glenbervie",
    "reference": "P/26/0237/FUL",
    "local_auth": "Falkirk",
    "application_type": "full_application",
    "is_primary": true,
    "official_area_m2": 185497,
    "source": "spatialhub_planning_applications_official",
    "source_id": "src-spatialhub-planning-applications",
    "licence": "OGL v3",
    "retrieved_date": "2026-07-30"
   }
  }
 ]
}
