{
 "type": "FeatureCollection",
 "features": [
  {
   "type": "Feature",
   "geometry": {
    "type": "MultiPolygon",
    "coordinates": [
     [
      [
       [
        -2.0648,
        57.229
       ],
       [
        -2.0642,
        57.2299
       ],
       [
        -2.063,
        57.2309
       ],
       [
        -2.0628,
        57.2311
       ],
       [
        -2.0678,
        57.2327
       ],
       [
        -2.0706,
        57.23
       ],
       [
        -2.0704,
        57.23
       ],
       [
        -2.0709,
        57.2288
       ],
       [
        -2.0704,
        57.2288
       ],
       [
        -2.0705,
        57.2284
       ],
       [
        -2.0712,
        57.2285
       ],
       [
        -2.0714,
        57.2285
       ],
       [
        -2.0717,
        57.2278
       ],
       [
        -2.073,
        57.2259
       ],
       [
        -2.073,
        57.2257
       ],
       [
        -2.0735,
        57.2245
       ],
       [
        -2.0737,
        57.2243
       ],
       [
        -2.0738,
        57.2241
       ],
       [
        -2.074,
        57.2235
       ],
       [
        -2.0743,
        57.2225
       ],
       [
        -2.0744,
        57.2217
       ],
       [
        -2.0735,
        57.2217
       ],
       [
        -2.0732,
        57.222
       ],
       [
        -2.0729,
        57.2221
       ],
       [
        -2.0726,
        57.2225
       ],
       [
        -2.0725,
        57.2225
       ],
       [
        -2.0724,
        57.2227
       ],
       [
        -2.0725,
        57.2227
       ],
       [
        -2.0718,
        57.2234
       ],
       [
        -2.0698,
        57.2229
       ],
       [
        -2.069,
        57.2232
       ],
       [
        -2.0686,
        57.2241
       ],
       [
        -2.0648,
        57.2231
       ],
       [
        -2.0646,
        57.2256
       ],
       [
        -2.0647,
        57.2256
       ],
       [
        -2.0659,
        57.2257
       ],
       [
        -2.065,
        57.2269
       ],
       [
        -2.0669,
        57.2271
       ],
       [
        -2.0681,
        57.228
       ],
       [
        -2.0677,
        57.2286
       ],
       [
        -2.0667,
        57.2288
       ],
       [
        -2.0662,
        57.2287
       ],
       [
        -2.0648,
        57.229
       ]
      ]
     ]
    ]
   },
   "properties": {
    "slug": "blackdog",
    "reference": "APP/2016/0766",
    "local_auth": "Aberdeenshire",
    "application_type": "permission_in_principle",
    "is_primary": true,
    "official_area_m2": 396373,
    "source": "spatialhub_planning_applications_official",
    "source_id": "src-spatialhub-planning-applications",
    "licence": "OGL v3",
    "retrieved_date": "2026-07-30"
   }
  }
 ]
}
