{
 "type": "FeatureCollection",
 "features": [
  {
   "type": "Feature",
   "geometry": {
    "type": "MultiPolygon",
    "coordinates": [
     [
      [
       [
        -3.9455,
        55.7828
       ],
       [
        -3.943,
        55.783
       ],
       [
        -3.9424,
        55.7831
       ],
       [
        -3.9408,
        55.7838
       ],
       [
        -3.9397,
        55.7841
       ],
       [
        -3.939,
        55.7846
       ],
       [
        -3.939,
        55.7848
       ],
       [
        -3.9385,
        55.7852
       ],
       [
        -3.9386,
        55.7863
       ],
       [
        -3.9426,
        55.7869
       ],
       [
        -3.9426,
        55.7876
       ],
       [
        -3.943,
        55.7883
       ],
       [
        -3.9428,
        55.789
       ],
       [
        -3.9431,
        55.7892
       ],
       [
        -3.9433,
        55.7892
       ],
       [
        -3.9434,
        55.7893
       ],
       [
        -3.9441,
        55.7907
       ],
       [
        -3.944,
        55.791
       ],
       [
        -3.944,
        55.7914
       ],
       [
        -3.9435,
        55.7922
       ],
       [
        -3.9426,
        55.7933
       ],
       [
        -3.9429,
        55.7934
       ],
       [
        -3.9432,
        55.7936
       ],
       [
        -3.9436,
        55.7936
       ],
       [
        -3.9441,
        55.7936
       ],
       [
        -3.9448,
        55.7936
       ],
       [
        -3.9458,
        55.7936
       ],
       [
        -3.9462,
        55.7936
       ],
       [
        -3.9466,
        55.7936
       ],
       [
        -3.9464,
        55.7933
       ],
       [
        -3.9497,
        55.7929
       ],
       [
        -3.9468,
        55.7861
       ],
       [
        -3.947,
        55.7859
       ],
       [
        -3.9455,
        55.7828
       ]
      ]
     ],
     [
      [
       [
        -3.9688,
        55.7881
       ],
       [
        -3.9687,
        55.7882
       ],
       [
        -3.9686,
        55.7889
       ],
       [
        -3.9682,
        55.7889
       ],
       [
        -3.9682,
        55.7892
       ],
       [
        -3.9676,
        55.79
       ],
       [
        -3.9703,
        55.79
       ],
       [
        -3.9703,
        55.7907
       ],
       [
        -3.9701,
        55.7907
       ],
       [
        -3.9701,
        55.7908
       ],
       [
        -3.9703,
        55.7908
       ],
       [
        -3.9704,
        55.791
       ],
       [
        -3.9701,
        55.791
       ],
       [
        -3.9701,
        55.7914
       ],
       [
        -3.97,
        55.7915
       ],
       [
        -3.9701,
        55.7917
       ],
       [
        -3.9702,
        55.7917
       ],
       [
        -3.9703,
        55.7921
       ],
       [
        -3.9705,
        55.7921
       ],
       [
        -3.971,
        55.7922
       ],
       [
        -3.9714,
        55.7923
       ],
       [
        -3.9718,
        55.7924
       ],
       [
        -3.972,
        55.7924
       ],
       [
        -3.9721,
        55.7925
       ],
       [
        -3.9721,
        55.7925
       ],
       [
        -3.9722,
        55.7926
       ],
       [
        -3.9723,
        55.7926
       ],
       [
        -3.9728,
        55.7926
       ],
       [
        -3.9728,
        55.7923
       ],
       [
        -3.9727,
        55.7922
       ],
       [
        -3.9722,
        55.792
       ],
       [
        -3.9722,
        55.7915
       ],
       [
        -3.9724,
        55.7914
       ],
       [
        -3.9723,
        55.7908
       ],
       [
        -3.9722,
        55.7907
       ],
       [
        -3.972,
        55.789
       ],
       [
        -3.9719,
        55.7889
       ],
       [
        -3.9718,
        55.7882
       ],
       [
        -3.9694,
        55.7883
       ],
       [
        -3.9693,
        55.7881
       ],
       [
        -3.9688,
        55.7881
       ]
      ]
     ],
     [
      [
       [
        -3.9739,
        55.7885
       ],
       [
        -3.9733,
        55.7886
       ],
       [
        -3.9733,
        55.7891
       ],
       [
        -3.9732,
        55.7892
       ],
       [
        -3.9731,
        55.7894
       ],
       [
        -3.973,
        55.7896
       ],
       [
        -3.9731,
        55.7897
       ],
       [
        -3.9732,
        55.7899
       ],
       [
        -3.9732,
        55.7902
       ],
       [
        -3.9732,
        55.7904
       ],
       [
        -3.9733,
        55.7905
       ],
       [
        -3.9735,
        55.7906
       ],
       [
        -3.9736,
        55.7911
       ],
       [
        -3.9738,
        55.7916
       ],
       [
        -3.974,
        55.7919
       ],
       [
        -3.9743,
        55.7922
       ],
       [
        -3.9749,
        55.7928
       ],
       [
        -3.9769,
        55.7927
       ],
       [
        -3.9776,
        55.7927
       ],
       [
        -3.9781,
        55.7927
       ],
       [
        -3.9784,
        55.7926
       ],
       [
        -3.9788,
        55.7925
       ],
       [
        -3.9791,
        55.7925
       ],
       [
        -3.9791,
        55.7925
       ],
       [
        -3.9795,
        55.7925
       ],
       [
        -3.9798,
        55.7924
       ],
       [
        -3.9802,
        55.7923
       ],
       [
        -3.9805,
        55.7922
       ],
       [
        -3.9807,
        55.7921
       ],
       [
        -3.9799,
        55.7915
       ],
       [
        -3.9809,
        55.7901
       ],
       [
        -3.9797,
        55.7899
       ],
       [
        -3.9792,
        55.7899
       ],
       [
        -3.9785,
        55.79
       ],
       [
        -3.9771,
        55.7898
       ],
       [
        -3.9755,
        55.7892
       ],
       [
        -3.9739,
        55.7885
       ]
      ]
     ]
    ]
   },
   "properties": {
    "slug": "ravenscraig",
    "reference": "25/00838/PAN",
    "local_auth": "North Lanarkshire",
    "application_type": "pan",
    "is_primary": true,
    "official_area_m2": 641641,
    "source": "spatialhub_planning_applications_official",
    "source_id": "src-spatialhub-planning-applications",
    "licence": "OGL v3",
    "retrieved_date": "2026-07-30"
   }
  }
 ]
}
