{
 "type": "FeatureCollection",
 "features": [
  {
   "type": "Feature",
   "geometry": {
    "type": "MultiPolygon",
    "coordinates": [
     [
      [
       [
        -2.3544,
        55.6865
       ],
       [
        -2.3547,
        55.6865
       ],
       [
        -2.3551,
        55.6863
       ],
       [
        -2.3562,
        55.686
       ],
       [
        -2.3583,
        55.6861
       ],
       [
        -2.3593,
        55.6862
       ],
       [
        -2.36,
        55.6864
       ],
       [
        -2.3601,
        55.6865
       ],
       [
        -2.3625,
        55.6859
       ],
       [
        -2.3694,
        55.6842
       ],
       [
        -2.3723,
        55.6826
       ],
       [
        -2.3718,
        55.6825
       ],
       [
        -2.3681,
        55.681
       ],
       [
        -2.366,
        55.6797
       ],
       [
        -2.3651,
        55.6792
       ],
       [
        -2.3637,
        55.6784
       ],
       [
        -2.3633,
        55.6782
       ],
       [
        -2.3622,
        55.6788
       ],
       [
        -2.3615,
        55.6784
       ],
       [
        -2.3593,
        55.6797
       ],
       [
        -2.3597,
        55.6799
       ],
       [
        -2.3591,
        55.6802
       ],
       [
        -2.3573,
        55.6809
       ],
       [
        -2.3547,
        55.6822
       ],
       [
        -2.353,
        55.6828
       ],
       [
        -2.3513,
        55.6835
       ],
       [
        -2.3507,
        55.6838
       ],
       [
        -2.3509,
        55.684
       ],
       [
        -2.3507,
        55.6841
       ],
       [
        -2.3503,
        55.6842
       ],
       [
        -2.3544,
        55.6865
       ]
      ]
     ]
    ]
   },
   "properties": {
    "slug": "coldstream",
    "reference": "25/00556/SCR",
    "local_auth": "Scottish Borders",
    "application_type": "eia_screening",
    "is_primary": true,
    "official_area_m2": 674176,
    "source": "spatialhub_planning_applications_official",
    "source_id": "src-spatialhub-planning-applications",
    "licence": "OGL v3",
    "retrieved_date": "2026-07-30"
   }
  }
 ]
}
