{
 "type": "FeatureCollection",
 "features": [
  {
   "type": "Feature",
   "geometry": {
    "type": "MultiPolygon",
    "coordinates": [
     [
      [
       [
        -2.514,
        55.9869
       ],
       [
        -2.5136,
        55.9872
       ],
       [
        -2.5133,
        55.9875
       ],
       [
        -2.5132,
        55.9877
       ],
       [
        -2.5134,
        55.9878
       ],
       [
        -2.5141,
        55.9878
       ],
       [
        -2.516,
        55.9877
       ],
       [
        -2.5188,
        55.9876
       ],
       [
        -2.5212,
        55.9875
       ],
       [
        -2.5246,
        55.9872
       ],
       [
        -2.5272,
        55.987
       ],
       [
        -2.5282,
        55.9868
       ],
       [
        -2.5299,
        55.9868
       ],
       [
        -2.5312,
        55.9868
       ],
       [
        -2.5326,
        55.9869
       ],
       [
        -2.5331,
        55.9866
       ],
       [
        -2.5331,
        55.9865
       ],
       [
        -2.5331,
        55.9862
       ],
       [
        -2.5329,
        55.986
       ],
       [
        -2.5328,
        55.9859
       ],
       [
        -2.5325,
        55.9855
       ],
       [
        -2.5322,
        55.9849
       ],
       [
        -2.5321,
        55.9845
       ],
       [
        -2.5317,
        55.9839
       ],
       [
        -2.5312,
        55.983
       ],
       [
        -2.5306,
        55.9821
       ],
       [
        -2.5244,
        55.9839
       ],
       [
        -2.5216,
        55.9842
       ],
       [
        -2.5184,
        55.985
       ],
       [
        -2.5167,
        55.9847
       ],
       [
        -2.5162,
        55.9853
       ],
       [
        -2.5158,
        55.9853
       ],
       [
        -2.514,
        55.9869
       ]
      ]
     ],
     [
      [
       [
        -2.5324,
        55.9814
       ],
       [
        -2.5321,
        55.9815
       ],
       [
        -2.5306,
        55.9821
       ],
       [
        -2.5322,
        55.9844
       ],
       [
        -2.5324,
        55.985
       ],
       [
        -2.5328,
        55.9858
       ],
       [
        -2.5331,
        55.9858
       ],
       [
        -2.5334,
        55.9856
       ],
       [
        -2.5342,
        55.984
       ],
       [
        -2.5342,
        55.9836
       ],
       [
        -2.5343,
        55.9834
       ],
       [
        -2.5331,
        55.9815
       ],
       [
        -2.5329,
        55.9814
       ],
       [
        -2.5324,
        55.9814
       ]
      ]
     ],
     [
      [
       [
        -2.509,
        55.9876
       ],
       [
        -2.5104,
        55.9876
       ],
       [
        -2.5115,
        55.9876
       ],
       [
        -2.5123,
        55.9873
       ],
       [
        -2.5133,
        55.9863
       ],
       [
        -2.5138,
        55.9862
       ],
       [
        -2.5145,
        55.9863
       ],
       [
        -2.5157,
        55.9852
       ],
       [
        -2.514,
        55.9838
       ],
       [
        -2.5068,
        55.9859
       ],
       [
        -2.509,
        55.9876
       ]
      ]
     ]
    ]
   },
   "properties": {
    "slug": "dunbar",
    "reference": "25/00008/SCR",
    "local_auth": "East Lothian",
    "application_type": "eia_scoping",
    "is_primary": true,
    "official_area_m2": 602490,
    "source": "spatialhub_planning_applications_official",
    "source_id": "src-spatialhub-planning-applications",
    "licence": "OGL v3",
    "retrieved_date": "2026-07-30"
   }
  },
  {
   "type": "Feature",
   "geometry": {
    "type": "MultiPolygon",
    "coordinates": [
     [
      [
       [
        -2.514,
        55.9869
       ],
       [
        -2.5136,
        55.9872
       ],
       [
        -2.5133,
        55.9875
       ],
       [
        -2.5132,
        55.9877
       ],
       [
        -2.5134,
        55.9878
       ],
       [
        -2.5141,
        55.9878
       ],
       [
        -2.516,
        55.9877
       ],
       [
        -2.5188,
        55.9876
       ],
       [
        -2.5212,
        55.9875
       ],
       [
        -2.5246,
        55.9872
       ],
       [
        -2.5272,
        55.987
       ],
       [
        -2.5282,
        55.9868
       ],
       [
        -2.5299,
        55.9868
       ],
       [
        -2.5312,
        55.9868
       ],
       [
        -2.5326,
        55.9869
       ],
       [
        -2.5331,
        55.9866
       ],
       [
        -2.5331,
        55.9865
       ],
       [
        -2.5331,
        55.9862
       ],
       [
        -2.5329,
        55.986
       ],
       [
        -2.5328,
        55.9859
       ],
       [
        -2.5325,
        55.9855
       ],
       [
        -2.5322,
        55.9849
       ],
       [
        -2.5321,
        55.9845
       ],
       [
        -2.5317,
        55.9839
       ],
       [
        -2.5312,
        55.983
       ],
       [
        -2.5306,
        55.9821
       ],
       [
        -2.5244,
        55.9839
       ],
       [
        -2.5216,
        55.9842
       ],
       [
        -2.5184,
        55.985
       ],
       [
        -2.5167,
        55.9847
       ],
       [
        -2.5162,
        55.9853
       ],
       [
        -2.5158,
        55.9853
       ],
       [
        -2.514,
        55.9869
       ]
      ]
     ],
     [
      [
       [
        -2.5324,
        55.9814
       ],
       [
        -2.5321,
        55.9815
       ],
       [
        -2.5306,
        55.9821
       ],
       [
        -2.5322,
        55.9844
       ],
       [
        -2.5324,
        55.985
       ],
       [
        -2.5328,
        55.9858
       ],
       [
        -2.5331,
        55.9858
       ],
       [
        -2.5334,
        55.9856
       ],
       [
        -2.5342,
        55.984
       ],
       [
        -2.5342,
        55.9836
       ],
       [
        -2.5343,
        55.9834
       ],
       [
        -2.5331,
        55.9815
       ],
       [
        -2.5329,
        55.9814
       ],
       [
        -2.5324,
        55.9814
       ]
      ]
     ],
     [
      [
       [
        -2.509,
        55.9876
       ],
       [
        -2.5104,
        55.9876
       ],
       [
        -2.5115,
        55.9876
       ],
       [
        -2.5123,
        55.9873
       ],
       [
        -2.5133,
        55.9863
       ],
       [
        -2.5138,
        55.9862
       ],
       [
        -2.5145,
        55.9863
       ],
       [
        -2.5157,
        55.9852
       ],
       [
        -2.514,
        55.9838
       ],
       [
        -2.5068,
        55.9859
       ],
       [
        -2.509,
        55.9876
       ]
      ]
     ]
    ]
   },
   "properties": {
    "slug": "dunbar",
    "reference": "25/00008/SCR",
    "local_auth": "East Lothian",
    "application_type": "eia_screening",
    "is_primary": false,
    "official_area_m2": 602490,
    "source": "spatialhub_planning_applications_official",
    "source_id": "src-spatialhub-planning-applications",
    "licence": "OGL v3",
    "retrieved_date": "2026-07-30"
   }
  }
 ]
}
