{
 "type": "FeatureCollection",
 "features": [
  {
   "type": "Feature",
   "geometry": {
    "type": "MultiPolygon",
    "coordinates": [
     [
      [
       [
        -3.9129,
        55.8349
       ],
       [
        -3.9169,
        55.834
       ],
       [
        -3.9164,
        55.8336
       ],
       [
        -3.9178,
        55.8329
       ],
       [
        -3.9229,
        55.8305
       ],
       [
        -3.9237,
        55.8313
       ],
       [
        -3.924,
        55.8313
       ],
       [
        -3.9239,
        55.8311
       ],
       [
        -3.9239,
        55.8309
       ],
       [
        -3.9245,
        55.8314
       ],
       [
        -3.9248,
        55.8316
       ],
       [
        -3.9253,
        55.8319
       ],
       [
        -3.9258,
        55.832
       ],
       [
        -3.9264,
        55.8319
       ],
       [
        -3.9261,
        55.8319
       ],
       [
        -3.9257,
        55.8318
       ],
       [
        -3.9253,
        55.8316
       ],
       [
        -3.9253,
        55.8313
       ],
       [
        -3.9254,
        55.8306
       ],
       [
        -3.9257,
        55.8278
       ],
       [
        -3.9244,
        55.8278
       ],
       [
        -3.9234,
        55.8259
       ],
       [
        -3.9231,
        55.8259
       ],
       [
        -3.9224,
        55.8261
       ],
       [
        -3.9222,
        55.8262
       ],
       [
        -3.9203,
        55.8266
       ],
       [
        -3.9207,
        55.827
       ],
       [
        -3.9203,
        55.8271
       ],
       [
        -3.9188,
        55.8272
       ],
       [
        -3.9185,
        55.8271
       ],
       [
        -3.9172,
        55.8281
       ],
       [
        -3.9174,
        55.8285
       ],
       [
        -3.9132,
        55.8309
       ],
       [
        -3.9097,
        55.8318
       ],
       [
        -3.9113,
        55.8336
       ],
       [
        -3.9116,
        55.8339
       ],
       [
        -3.9127,
        55.8349
       ],
       [
        -3.9129,
        55.8349
       ]
      ]
     ]
    ]
   },
   "properties": {
    "slug": "newhouse-aurelius",
    "reference": "25/00989/PAN",
    "local_auth": "North Lanarkshire",
    "application_type": "pan",
    "is_primary": true,
    "official_area_m2": 451958,
    "source": "spatialhub_planning_applications_official",
    "source_id": "src-spatialhub-planning-applications",
    "licence": "OGL v3",
    "retrieved_date": "2026-07-30"
   }
  },
  {
   "type": "Feature",
   "geometry": {
    "type": "MultiPolygon",
    "coordinates": [
     [
      [
       [
        -3.9262,
        55.832
       ],
       [
        -3.9264,
        55.8319
       ],
       [
        -3.9261,
        55.8319
       ],
       [
        -3.9257,
        55.8318
       ],
       [
        -3.9253,
        55.8316
       ],
       [
        -3.9252,
        55.8315
       ],
       [
        -3.9251,
        55.831
       ],
       [
        -3.9253,
        55.831
       ],
       [
        -3.9256,
        55.8296
       ],
       [
        -3.9255,
        55.8295
       ],
       [
        -3.9255,
        55.8293
       ],
       [
        -3.9257,
        55.8283
       ],
       [
        -3.9258,
        55.8282
       ],
       [
        -3.9259,
        55.8284
       ],
       [
        -3.9261,
        55.8285
       ],
       [
        -3.9259,
        55.8277
       ],
       [
        -3.9259,
        55.8276
       ],
       [
        -3.9257,
        55.8276
       ],
       [
        -3.9257,
        55.8278
       ],
       [
        -3.9256,
        55.8278
       ],
       [
        -3.9245,
        55.8278
       ],
       [
        -3.9244,
        55.8277
       ],
       [
        -3.9243,
        55.8277
       ],
       [
        -3.9234,
        55.8259
       ],
       [
        -3.9232,
        55.8259
       ],
       [
        -3.9229,
        55.8259
       ],
       [
        -3.9225,
        55.826
       ],
       [
        -3.9223,
        55.8262
       ],
       [
        -3.922,
        55.8263
       ],
       [
        -3.9204,
        55.8266
       ],
       [
        -3.9204,
        55.8269
       ],
       [
        -3.9205,
        55.827
       ],
       [
        -3.9195,
        55.8271
       ],
       [
        -3.9192,
        55.8272
       ],
       [
        -3.9185,
        55.8271
       ],
       [
        -3.9172,
        55.8281
       ],
       [
        -3.9174,
        55.8285
       ],
       [
        -3.9132,
        55.8309
       ],
       [
        -3.9131,
        55.8309
       ],
       [
        -3.9097,
        55.8318
       ],
       [
        -3.9114,
        55.8337
       ],
       [
        -3.9116,
        55.8339
       ],
       [
        -3.9128,
        55.8349
       ],
       [
        -3.9129,
        55.8349
       ],
       [
        -3.9131,
        55.8349
       ],
       [
        -3.9154,
        55.8344
       ],
       [
        -3.917,
        55.8341
       ],
       [
        -3.9164,
        55.8336
       ],
       [
        -3.9186,
        55.8326
       ],
       [
        -3.9215,
        55.8312
       ],
       [
        -3.9227,
        55.8306
       ],
       [
        -3.9235,
        55.831
       ],
       [
        -3.9241,
        55.8313
       ],
       [
        -3.9236,
        55.8308
       ],
       [
        -3.9251,
        55.8316
       ],
       [
        -3.9256,
        55.8319
       ],
       [
        -3.9259,
        55.8319
       ],
       [
        -3.9262,
        55.832
       ]
      ]
     ]
    ]
   },
   "properties": {
    "slug": "newhouse-aurelius",
    "reference": "26/00595/EIASCR",
    "local_auth": "North Lanarkshire",
    "application_type": "eia_screening",
    "is_primary": false,
    "official_area_m2": 455593,
    "source": "spatialhub_planning_applications_official",
    "source_id": "src-spatialhub-planning-applications",
    "licence": "OGL v3",
    "retrieved_date": "2026-07-30"
   }
  }
 ]
}
