{
 "type": "FeatureCollection",
 "features": [
  {
   "type": "Feature",
   "geometry": {
    "type": "MultiPolygon",
    "coordinates": [
     [
      [
       [
        -3.2129,
        58.6287
       ],
       [
        -3.2159,
        58.6302
       ],
       [
        -3.2124,
        58.6322
       ],
       [
        -3.2167,
        58.6346
       ],
       [
        -3.2175,
        58.6344
       ],
       [
        -3.2186,
        58.6341
       ],
       [
        -3.2208,
        58.6336
       ],
       [
        -3.2232,
        58.633
       ],
       [
        -3.2264,
        58.6322
       ],
       [
        -3.2265,
        58.6322
       ],
       [
        -3.2258,
        58.6316
       ],
       [
        -3.2233,
        58.6296
       ],
       [
        -3.2226,
        58.629
       ],
       [
        -3.2232,
        58.6287
       ],
       [
        -3.2226,
        58.6283
       ],
       [
        -3.2219,
        58.6285
       ],
       [
        -3.2206,
        58.6274
       ],
       [
        -3.2187,
        58.6259
       ],
       [
        -3.2184,
        58.6256
       ],
       [
        -3.2184,
        58.6256
       ],
       [
        -3.2183,
        58.6256
       ],
       [
        -3.2183,
        58.6256
       ],
       [
        -3.2183,
        58.6256
       ],
       [
        -3.216,
        58.6269
       ],
       [
        -3.2129,
        58.6287
       ]
      ]
     ]
    ]
   },
   "properties": {
    "slug": "meygen-caithness",
    "reference": "20/01258/SCRE",
    "local_auth": "Highland",
    "application_type": "eia_screening",
    "is_primary": true,
    "official_area_m2": 430180,
    "source": "spatialhub_planning_applications_official",
    "source_id": "src-spatialhub-planning-applications",
    "licence": "OGL v3",
    "retrieved_date": "2026-07-30"
   }
  }
 ]
}
