{
 "type": "FeatureCollection",
 "features": [
  {
   "type": "Feature",
   "geometry": {
    "type": "MultiPolygon",
    "coordinates": [
     [
      [
       [
        -3.5882,
        55.858
       ],
       [
        -3.5885,
        55.8583
       ],
       [
        -3.5889,
        55.8587
       ],
       [
        -3.5891,
        55.8589
       ],
       [
        -3.5891,
        55.8589
       ],
       [
        -3.5892,
        55.859
       ],
       [
        -3.5894,
        55.8592
       ],
       [
        -3.5894,
        55.8593
       ],
       [
        -3.5895,
        55.8593
       ],
       [
        -3.5895,
        55.8593
       ],
       [
        -3.5895,
        55.8593
       ],
       [
        -3.5895,
        55.8594
       ],
       [
        -3.5895,
        55.8594
       ],
       [
        -3.5896,
        55.8594
       ],
       [
        -3.5896,
        55.8594
       ],
       [
        -3.5898,
        55.8596
       ],
       [
        -3.59,
        55.8597
       ],
       [
        -3.5903,
        55.8599
       ],
       [
        -3.5906,
        55.86
       ],
       [
        -3.5907,
        55.8602
       ],
       [
        -3.5908,
        55.8602
       ],
       [
        -3.5909,
        55.8602
       ],
       [
        -3.5909,
        55.8602
       ],
       [
        -3.5909,
        55.8602
       ],
       [
        -3.5909,
        55.8603
       ],
       [
        -3.5909,
        55.8603
       ],
       [
        -3.591,
        55.8603
       ],
       [
        -3.591,
        55.8603
       ],
       [
        -3.591,
        55.8603
       ],
       [
        -3.5911,
        55.8603
       ],
       [
        -3.5912,
        55.8603
       ],
       [
        -3.5917,
        55.8601
       ],
       [
        -3.5925,
        55.8597
       ],
       [
        -3.5931,
        55.8593
       ],
       [
        -3.5931,
        55.8593
       ],
       [
        -3.5931,
        55.8593
       ],
       [
        -3.5932,
        55.8593
       ],
       [
        -3.5935,
        55.859
       ],
       [
        -3.5936,
        55.8589
       ],
       [
        -3.5937,
        55.8586
       ],
       [
        -3.594,
        55.8582
       ],
       [
        -3.594,
        55.8581
       ],
       [
        -3.5941,
        55.858
       ],
       [
        -3.5943,
        55.8578
       ],
       [
        -3.5943,
        55.8578
       ],
       [
        -3.5945,
        55.8577
       ],
       [
        -3.5945,
        55.8577
       ],
       [
        -3.5947,
        55.8575
       ],
       [
        -3.5948,
        55.8575
       ],
       [
        -3.5948,
        55.8575
       ],
       [
        -3.5948,
        55.8575
       ],
       [
        -3.5948,
        55.8575
       ],
       [
        -3.5948,
        55.8575
       ],
       [
        -3.595,
        55.8573
       ],
       [
        -3.5982,
        55.8565
       ],
       [
        -3.5998,
        55.8566
       ],
       [
        -3.6023,
        55.8559
       ],
       [
        -3.6023,
        55.8559
       ],
       [
        -3.6024,
        55.8559
       ],
       [
        -3.6025,
        55.8558
       ],
       [
        -3.6018,
        55.8553
       ],
       [
        -3.6018,
        55.8548
       ],
       [
        -3.6017,
        55.8548
       ],
       [
        -3.6015,
        55.8546
       ],
       [
        -3.6012,
        55.8543
       ],
       [
        -3.6012,
        55.8543
       ],
       [
        -3.6005,
        55.8535
       ],
       [
        -3.6004,
        55.8534
       ],
       [
        -3.6004,
        55.8533
       ],
       [
        -3.5996,
        55.8525
       ],
       [
        -3.5996,
        55.8525
       ],
       [
        -3.5992,
        55.852
       ],
       [
        -3.5989,
        55.8521
       ],
       [
        -3.5976,
        55.8524
       ],
       [
        -3.5964,
        55.8526
       ],
       [
        -3.5946,
        55.8524
       ],
       [
        -3.594,
        55.8525
       ],
       [
        -3.5936,
        55.8525
       ],
       [
        -3.5929,
        55.8526
       ],
       [
        -3.5921,
        55.8523
       ],
       [
        -3.592,
        55.8524
       ],
       [
        -3.5919,
        55.8524
       ],
       [
        -3.5919,
        55.8524
       ],
       [
        -3.5919,
        55.8524
       ],
       [
        -3.5918,
        55.8524
       ],
       [
        -3.5917,
        55.8524
       ],
       [
        -3.5916,
        55.8524
       ],
       [
        -3.5916,
        55.8524
       ],
       [
        -3.5915,
        55.8524
       ],
       [
        -3.5912,
        55.8524
       ],
       [
        -3.5911,
        55.8524
       ],
       [
        -3.5909,
        55.8525
       ],
       [
        -3.5909,
        55.8525
       ],
       [
        -3.5907,
        55.8525
       ],
       [
        -3.5907,
        55.8525
       ],
       [
        -3.5907,
        55.8525
       ],
       [
        -3.5904,
        55.8526
       ],
       [
        -3.5903,
        55.8526
       ],
       [
        -3.5903,
        55.8526
       ],
       [
        -3.5902,
        55.8526
       ],
       [
        -3.5898,
        55.8528
       ],
       [
        -3.5895,
        55.8529
       ],
       [
        -3.5881,
        55.8535
       ],
       [
        -3.5874,
        55.8538
       ],
       [
        -3.5871,
        55.8539
       ],
       [
        -3.587,
        55.854
       ],
       [
        -3.5853,
        55.8548
       ],
       [
        -3.5853,
        55.8548
       ],
       [
        -3.5853,
        55.8549
       ],
       [
        -3.5861,
        55.8558
       ],
       [
        -3.5861,
        55.8558
       ],
       [
        -3.5862,
        55.8558
       ],
       [
        -3.5863,
        55.8559
       ],
       [
        -3.5866,
        55.8563
       ],
       [
        -3.5876,
        55.8574
       ],
       [
        -3.5876,
        55.8574
       ],
       [
        -3.5878,
        55.8576
       ],
       [
        -3.588,
        55.8578
       ],
       [
        -3.5882,
        55.858
       ]
      ]
     ]
    ]
   },
   "properties": {
    "slug": "west-calder",
    "reference": "0625/PAC/25",
    "local_auth": "West Lothian",
    "application_type": "pan",
    "is_primary": true,
    "official_area_m2": 536644,
    "source": "spatialhub_planning_applications_official",
    "source_id": "src-spatialhub-planning-applications",
    "licence": "OGL v3",
    "retrieved_date": "2026-07-30"
   }
  },
  {
   "type": "Feature",
   "geometry": {
    "type": "MultiPolygon",
    "coordinates": [
     [
      [
       [
        -3.5882,
        55.858
       ],
       [
        -3.5885,
        55.8583
       ],
       [
        -3.5889,
        55.8587
       ],
       [
        -3.5891,
        55.8589
       ],
       [
        -3.5891,
        55.8589
       ],
       [
        -3.5892,
        55.859
       ],
       [
        -3.5894,
        55.8592
       ],
       [
        -3.5894,
        55.8593
       ],
       [
        -3.5895,
        55.8593
       ],
       [
        -3.5895,
        55.8593
       ],
       [
        -3.5895,
        55.8593
       ],
       [
        -3.5895,
        55.8594
       ],
       [
        -3.5895,
        55.8594
       ],
       [
        -3.5896,
        55.8594
       ],
       [
        -3.5896,
        55.8594
       ],
       [
        -3.5898,
        55.8596
       ],
       [
        -3.59,
        55.8597
       ],
       [
        -3.5903,
        55.8599
       ],
       [
        -3.5906,
        55.86
       ],
       [
        -3.5907,
        55.8602
       ],
       [
        -3.5908,
        55.8602
       ],
       [
        -3.5909,
        55.8602
       ],
       [
        -3.5909,
        55.8602
       ],
       [
        -3.5909,
        55.8602
       ],
       [
        -3.5909,
        55.8603
       ],
       [
        -3.5909,
        55.8603
       ],
       [
        -3.591,
        55.8603
       ],
       [
        -3.591,
        55.8603
       ],
       [
        -3.591,
        55.8603
       ],
       [
        -3.5911,
        55.8603
       ],
       [
        -3.5912,
        55.8603
       ],
       [
        -3.5917,
        55.8601
       ],
       [
        -3.5925,
        55.8597
       ],
       [
        -3.5931,
        55.8593
       ],
       [
        -3.5931,
        55.8593
       ],
       [
        -3.5931,
        55.8593
       ],
       [
        -3.5932,
        55.8593
       ],
       [
        -3.5935,
        55.859
       ],
       [
        -3.5936,
        55.8589
       ],
       [
        -3.5937,
        55.8586
       ],
       [
        -3.594,
        55.8582
       ],
       [
        -3.594,
        55.8581
       ],
       [
        -3.5941,
        55.858
       ],
       [
        -3.5943,
        55.8578
       ],
       [
        -3.5943,
        55.8578
       ],
       [
        -3.5945,
        55.8577
       ],
       [
        -3.5945,
        55.8577
       ],
       [
        -3.5947,
        55.8575
       ],
       [
        -3.5948,
        55.8575
       ],
       [
        -3.5948,
        55.8575
       ],
       [
        -3.5948,
        55.8575
       ],
       [
        -3.5948,
        55.8575
       ],
       [
        -3.5948,
        55.8575
       ],
       [
        -3.5948,
        55.8575
       ],
       [
        -3.5948,
        55.8574
       ],
       [
        -3.5948,
        55.8574
       ],
       [
        -3.5948,
        55.8574
       ],
       [
        -3.5948,
        55.8574
       ],
       [
        -3.5948,
        55.8574
       ],
       [
        -3.5948,
        55.8574
       ],
       [
        -3.5947,
        55.8573
       ],
       [
        -3.5947,
        55.8573
       ],
       [
        -3.5948,
        55.8573
       ],
       [
        -3.5949,
        55.8574
       ],
       [
        -3.5949,
        55.8574
       ],
       [
        -3.5949,
        55.8574
       ],
       [
        -3.5949,
        55.8574
       ],
       [
        -3.5949,
        55.8574
       ],
       [
        -3.5949,
        55.8574
       ],
       [
        -3.5949,
        55.8574
       ],
       [
        -3.5949,
        55.8574
       ],
       [
        -3.595,
        55.8574
       ],
       [
        -3.595,
        55.8574
       ],
       [
        -3.595,
        55.8574
       ],
       [
        -3.595,
        55.8574
       ],
       [
        -3.5951,
        55.8574
       ],
       [
        -3.5951,
        55.8574
       ],
       [
        -3.5951,
        55.8574
       ],
       [
        -3.5951,
        55.8574
       ],
       [
        -3.5951,
        55.8574
       ],
       [
        -3.5951,
        55.8574
       ],
       [
        -3.5951,
        55.8574
       ],
       [
        -3.5951,
        55.8574
       ],
       [
        -3.5951,
        55.8574
       ],
       [
        -3.595,
        55.8574
       ],
       [
        -3.595,
        55.8574
       ],
       [
        -3.595,
        55.8573
       ],
       [
        -3.595,
        55.8573
       ],
       [
        -3.5949,
        55.8573
       ],
       [
        -3.5949,
        55.8573
       ],
       [
        -3.5948,
        55.8573
       ],
       [
        -3.5948,
        55.8572
       ],
       [
        -3.5949,
        55.8573
       ],
       [
        -3.5949,
        55.8573
       ],
       [
        -3.595,
        55.8573
       ],
       [
        -3.595,
        55.8573
       ],
       [
        -3.595,
        55.8573
       ],
       [
        -3.595,
        55.8573
       ],
       [
        -3.5951,
        55.8573
       ],
       [
        -3.5951,
        55.8573
       ],
       [
        -3.5951,
        55.8573
       ],
       [
        -3.5951,
        55.8573
       ],
       [
        -3.5952,
        55.8573
       ],
       [
        -3.5952,
        55.8573
       ],
       [
        -3.5952,
        55.8573
       ],
       [
        -3.5962,
        55.857
       ],
       [
        -3.5966,
        55.8569
       ],
       [
        -3.5969,
        55.8568
       ],
       [
        -3.5974,
        55.8567
       ],
       [
        -3.5979,
        55.8566
       ],
       [
        -3.5979,
        55.8566
       ],
       [
        -3.5979,
        55.8566
       ],
       [
        -3.598,
        55.8566
       ],
       [
        -3.5981,
        55.8566
       ],
       [
        -3.5982,
        55.8565
       ],
       [
        -3.5983,
        55.8566
       ],
       [
        -3.5985,
        55.8566
       ],
       [
        -3.5986,
        55.8566
       ],
       [
        -3.5986,
        55.8566
       ],
       [
        -3.5987,
        55.8566
       ],
       [
        -3.5987,
        55.8566
       ],
       [
        -3.5991,
        55.8566
       ],
       [
        -3.5991,
        55.8566
       ],
       [
        -3.5993,
        55.8566
       ],
       [
        -3.5994,
        55.8566
       ],
       [
        -3.5994,
        55.8566
       ],
       [
        -3.5995,
        55.8566
       ],
       [
        -3.5996,
        55.8566
       ],
       [
        -3.5997,
        55.8566
       ],
       [
        -3.5997,
        55.8566
       ],
       [
        -3.5997,
        55.8566
       ],
       [
        -3.5998,
        55.8566
       ],
       [
        -3.5998,
        55.8565
       ],
       [
        -3.5999,
        55.8565
       ],
       [
        -3.5999,
        55.8565
       ],
       [
        -3.6012,
        55.8562
       ],
       [
        -3.6013,
        55.8562
       ],
       [
        -3.6015,
        55.8561
       ],
       [
        -3.6015,
        55.8561
       ],
       [
        -3.6017,
        55.8561
       ],
       [
        -3.6017,
        55.8561
       ],
       [
        -3.6018,
        55.856
       ],
       [
        -3.6019,
        55.856
       ],
       [
        -3.6021,
        55.8559
       ],
       [
        -3.6022,
        55.8559
       ],
       [
        -3.6022,
        55.8559
       ],
       [
        -3.6025,
        55.8558
       ],
       [
        -3.6018,
        55.8553
       ],
       [
        -3.6018,
        55.8549
       ],
       [
        -3.5998,
        55.8527
       ],
       [
        -3.5959,
        55.8535
       ],
       [
        -3.596,
        55.8536
       ],
       [
        -3.596,
        55.8536
       ],
       [
        -3.5959,
        55.8536
       ],
       [
        -3.5959,
        55.8536
       ],
       [
        -3.5959,
        55.8536
       ],
       [
        -3.5958,
        55.8536
       ],
       [
        -3.5958,
        55.8536
       ],
       [
        -3.5958,
        55.8536
       ],
       [
        -3.5958,
        55.8536
       ],
       [
        -3.5957,
        55.8536
       ],
       [
        -3.5957,
        55.8536
       ],
       [
        -3.5957,
        55.8536
       ],
       [
        -3.5957,
        55.8536
       ],
       [
        -3.5956,
        55.8536
       ],
       [
        -3.5956,
        55.8536
       ],
       [
        -3.5956,
        55.8536
       ],
       [
        -3.5955,
        55.8536
       ],
       [
        -3.5936,
        55.8537
       ],
       [
        -3.5935,
        55.8537
       ],
       [
        -3.5934,
        55.8538
       ],
       [
        -3.5934,
        55.8538
       ],
       [
        -3.5933,
        55.8538
       ],
       [
        -3.5933,
        55.8538
       ],
       [
        -3.5932,
        55.8538
       ],
       [
        -3.5932,
        55.8538
       ],
       [
        -3.5932,
        55.8538
       ],
       [
        -3.5931,
        55.8538
       ],
       [
        -3.5931,
        55.8538
       ],
       [
        -3.5924,
        55.854
       ],
       [
        -3.5923,
        55.8541
       ],
       [
        -3.592,
        55.8541
       ],
       [
        -3.5919,
        55.8542
       ],
       [
        -3.5917,
        55.8542
       ],
       [
        -3.5915,
        55.8543
       ],
       [
        -3.5913,
        55.8543
       ],
       [
        -3.5909,
        55.8544
       ],
       [
        -3.5897,
        55.8548
       ],
       [
        -3.5896,
        55.8548
       ],
       [
        -3.5895,
        55.8548
       ],
       [
        -3.5872,
        55.8555
       ],
       [
        -3.5862,
        55.8558
       ],
       [
        -3.5863,
        55.8559
       ],
       [
        -3.5866,
        55.8563
       ],
       [
        -3.5876,
        55.8574
       ],
       [
        -3.5876,
        55.8574
       ],
       [
        -3.5878,
        55.8576
       ],
       [
        -3.588,
        55.8578
       ],
       [
        -3.5882,
        55.858
       ]
      ],
      [
       [
        -3.5985,
        55.8565
       ],
       [
        -3.5985,
        55.8565
       ],
       [
        -3.5985,
        55.8565
       ],
       [
        -3.5985,
        55.8566
       ],
       [
        -3.5985,
        55.8565
       ]
      ],
      [
       [
        -3.5967,
        55.8556
       ],
       [
        -3.5966,
        55.8556
       ],
       [
        -3.5966,
        55.8556
       ],
       [
        -3.5966,
        55.8556
       ],
       [
        -3.5966,
        55.8556
       ],
       [
        -3.5966,
        55.8556
       ],
       [
        -3.5966,
        55.8556
       ],
       [
        -3.5966,
        55.8556
       ],
       [
        -3.5966,
        55.8556
       ],
       [
        -3.5966,
        55.8556
       ],
       [
        -3.5966,
        55.8556
       ],
       [
        -3.5966,
        55.8556
       ],
       [
        -3.5966,
        55.8556
       ],
       [
        -3.5966,
        55.8556
       ],
       [
        -3.5966,
        55.8556
       ],
       [
        -3.5966,
        55.8556
       ],
       [
        -3.5966,
        55.8556
       ],
       [
        -3.5966,
        55.8556
       ],
       [
        -3.5966,
        55.8556
       ],
       [
        -3.5966,
        55.8556
       ],
       [
        -3.5966,
        55.8556
       ],
       [
        -3.5966,
        55.8556
       ],
       [
        -3.5966,
        55.8556
       ],
       [
        -3.5966,
        55.8556
       ],
       [
        -3.5966,
        55.8556
       ],
       [
        -3.5966,
        55.8556
       ],
       [
        -3.5966,
        55.8556
       ],
       [
        -3.5966,
        55.8556
       ],
       [
        -3.5966,
        55.8556
       ],
       [
        -3.5966,
        55.8556
       ],
       [
        -3.5966,
        55.8556
       ],
       [
        -3.5966,
        55.8556
       ],
       [
        -3.5966,
        55.8556
       ],
       [
        -3.5966,
        55.8556
       ],
       [
        -3.5967,
        55.8556
       ],
       [
        -3.5967,
        55.8556
       ]
      ]
     ]
    ]
   },
   "properties": {
    "slug": "west-calder",
    "reference": "0346/EIA/25",
    "local_auth": "West Lothian",
    "application_type": "eia_screening",
    "is_primary": false,
    "official_area_m2": 406312,
    "source": "spatialhub_planning_applications_official",
    "source_id": "src-spatialhub-planning-applications",
    "licence": "OGL v3",
    "retrieved_date": "2026-07-30"
   }
  }
 ]
}
