{
 "type": "FeatureCollection",
 "features": [
  {
   "type": "Feature",
   "geometry": {
    "type": "MultiPolygon",
    "coordinates": [
     [
      [
       [
        -3.2712,
        56.101
       ],
       [
        -3.271,
        56.101
       ],
       [
        -3.2709,
        56.1011
       ],
       [
        -3.2708,
        56.1011
       ],
       [
        -3.2707,
        56.1012
       ],
       [
        -3.2706,
        56.1012
       ],
       [
        -3.2705,
        56.1012
       ],
       [
        -3.2704,
        56.1013
       ],
       [
        -3.2703,
        56.1013
       ],
       [
        -3.2702,
        56.1014
       ],
       [
        -3.27,
        56.1015
       ],
       [
        -3.2698,
        56.1016
       ],
       [
        -3.2697,
        56.1016
       ],
       [
        -3.2696,
        56.1016
       ],
       [
        -3.2695,
        56.1017
       ],
       [
        -3.2693,
        56.1017
       ],
       [
        -3.269,
        56.1018
       ],
       [
        -3.2687,
        56.1018
       ],
       [
        -3.2684,
        56.1019
       ],
       [
        -3.2681,
        56.1019
       ],
       [
        -3.2678,
        56.102
       ],
       [
        -3.2671,
        56.1021
       ],
       [
        -3.2671,
        56.1021
       ],
       [
        -3.2668,
        56.1021
       ],
       [
        -3.2664,
        56.1022
       ],
       [
        -3.2661,
        56.1022
       ],
       [
        -3.266,
        56.1023
       ],
       [
        -3.2658,
        56.1023
       ],
       [
        -3.2657,
        56.1023
       ],
       [
        -3.2655,
        56.1023
       ],
       [
        -3.2654,
        56.1023
       ],
       [
        -3.2652,
        56.1023
       ],
       [
        -3.2651,
        56.1023
       ],
       [
        -3.265,
        56.1023
       ],
       [
        -3.2648,
        56.1023
       ],
       [
        -3.2645,
        56.1023
       ],
       [
        -3.2643,
        56.1023
       ],
       [
        -3.2642,
        56.1023
       ],
       [
        -3.2642,
        56.1023
       ],
       [
        -3.2641,
        56.1023
       ],
       [
        -3.2641,
        56.1023
       ],
       [
        -3.264,
        56.1023
       ],
       [
        -3.2639,
        56.1023
       ],
       [
        -3.2639,
        56.1023
       ],
       [
        -3.2638,
        56.1023
       ],
       [
        -3.2637,
        56.1023
       ],
       [
        -3.2636,
        56.1024
       ],
       [
        -3.2635,
        56.1024
       ],
       [
        -3.2635,
        56.1024
       ],
       [
        -3.2634,
        56.1024
       ],
       [
        -3.2634,
        56.1024
       ],
       [
        -3.2633,
        56.1025
       ],
       [
        -3.2632,
        56.1025
       ],
       [
        -3.263,
        56.1025
       ],
       [
        -3.2629,
        56.1026
       ],
       [
        -3.2635,
        56.1032
       ],
       [
        -3.2642,
        56.1038
       ],
       [
        -3.2646,
        56.104
       ],
       [
        -3.2646,
        56.1041
       ],
       [
        -3.2647,
        56.1042
       ],
       [
        -3.2649,
        56.1043
       ],
       [
        -3.2655,
        56.1043
       ],
       [
        -3.2655,
        56.1045
       ],
       [
        -3.2655,
        56.1045
       ],
       [
        -3.2655,
        56.1045
       ],
       [
        -3.2653,
        56.1045
       ],
       [
        -3.2652,
        56.1045
       ],
       [
        -3.2652,
        56.1045
       ],
       [
        -3.2651,
        56.1045
       ],
       [
        -3.2651,
        56.1045
       ],
       [
        -3.265,
        56.1045
       ],
       [
        -3.265,
        56.1045
       ],
       [
        -3.265,
        56.1045
       ],
       [
        -3.2649,
        56.1045
       ],
       [
        -3.2649,
        56.1045
       ],
       [
        -3.2649,
        56.1045
       ],
       [
        -3.2649,
        56.1045
       ],
       [
        -3.2648,
        56.1045
       ],
       [
        -3.2648,
        56.1045
       ],
       [
        -3.2647,
        56.1045
       ],
       [
        -3.2647,
        56.1045
       ],
       [
        -3.2647,
        56.1045
       ],
       [
        -3.2647,
        56.1045
       ],
       [
        -3.2647,
        56.1045
       ],
       [
        -3.2646,
        56.1045
       ],
       [
        -3.2646,
        56.1045
       ],
       [
        -3.2646,
        56.1045
       ],
       [
        -3.2646,
        56.1046
       ],
       [
        -3.2646,
        56.1046
       ],
       [
        -3.2645,
        56.1046
       ],
       [
        -3.2644,
        56.1046
       ],
       [
        -3.2644,
        56.1046
       ],
       [
        -3.2643,
        56.1047
       ],
       [
        -3.2642,
        56.1047
       ],
       [
        -3.2641,
        56.1047
       ],
       [
        -3.264,
        56.1048
       ],
       [
        -3.2638,
        56.1048
       ],
       [
        -3.2637,
        56.1048
       ],
       [
        -3.2636,
        56.1049
       ],
       [
        -3.2635,
        56.1049
       ],
       [
        -3.2635,
        56.1049
       ],
       [
        -3.2635,
        56.1049
       ],
       [
        -3.2635,
        56.1049
       ],
       [
        -3.2634,
        56.105
       ],
       [
        -3.2633,
        56.105
       ],
       [
        -3.2632,
        56.105
       ],
       [
        -3.2632,
        56.105
       ],
       [
        -3.2631,
        56.1051
       ],
       [
        -3.2631,
        56.1051
       ],
       [
        -3.2631,
        56.1051
       ],
       [
        -3.2631,
        56.1051
       ],
       [
        -3.263,
        56.1051
       ],
       [
        -3.263,
        56.1051
       ],
       [
        -3.263,
        56.1051
       ],
       [
        -3.263,
        56.1051
       ],
       [
        -3.263,
        56.1051
       ],
       [
        -3.263,
        56.1051
       ],
       [
        -3.263,
        56.1051
       ],
       [
        -3.263,
        56.1051
       ],
       [
        -3.263,
        56.1051
       ],
       [
        -3.263,
        56.1051
       ],
       [
        -3.2629,
        56.1051
       ],
       [
        -3.2629,
        56.1051
       ],
       [
        -3.2629,
        56.1051
       ],
       [
        -3.2629,
        56.1051
       ],
       [
        -3.2629,
        56.1051
       ],
       [
        -3.2629,
        56.1051
       ],
       [
        -3.2629,
        56.1051
       ],
       [
        -3.2629,
        56.1051
       ],
       [
        -3.2629,
        56.1051
       ],
       [
        -3.2629,
        56.1051
       ],
       [
        -3.2629,
        56.1051
       ],
       [
        -3.2629,
        56.105
       ],
       [
        -3.2629,
        56.105
       ],
       [
        -3.2627,
        56.1049
       ],
       [
        -3.2626,
        56.1049
       ],
       [
        -3.2625,
        56.1048
       ],
       [
        -3.2625,
        56.1048
       ],
       [
        -3.2624,
        56.1048
       ],
       [
        -3.2624,
        56.1048
       ],
       [
        -3.2623,
        56.1049
       ],
       [
        -3.2623,
        56.1049
       ],
       [
        -3.2623,
        56.1049
       ],
       [
        -3.2623,
        56.1049
       ],
       [
        -3.2622,
        56.1049
       ],
       [
        -3.2622,
        56.1049
       ],
       [
        -3.2622,
        56.105
       ],
       [
        -3.2622,
        56.105
       ],
       [
        -3.2621,
        56.1051
       ],
       [
        -3.2621,
        56.1051
       ],
       [
        -3.2621,
        56.1052
       ],
       [
        -3.2621,
        56.1052
       ],
       [
        -3.2621,
        56.1052
       ],
       [
        -3.262,
        56.1053
       ],
       [
        -3.262,
        56.1053
       ],
       [
        -3.262,
        56.1054
       ],
       [
        -3.262,
        56.1055
       ],
       [
        -3.262,
        56.1055
       ],
       [
        -3.262,
        56.1056
       ],
       [
        -3.262,
        56.1057
       ],
       [
        -3.262,
        56.1057
       ],
       [
        -3.262,
        56.1059
       ],
       [
        -3.262,
        56.106
       ],
       [
        -3.262,
        56.106
       ],
       [
        -3.262,
        56.1062
       ],
       [
        -3.2621,
        56.1065
       ],
       [
        -3.2621,
        56.1065
       ],
       [
        -3.2621,
        56.1066
       ],
       [
        -3.2621,
        56.1067
       ],
       [
        -3.2621,
        56.1069
       ],
       [
        -3.2621,
        56.107
       ],
       [
        -3.2621,
        56.1071
       ],
       [
        -3.2621,
        56.1071
       ],
       [
        -3.262,
        56.1071
       ],
       [
        -3.262,
        56.1071
       ],
       [
        -3.2618,
        56.1073
       ],
       [
        -3.2618,
        56.1073
       ],
       [
        -3.2615,
        56.1075
       ],
       [
        -3.2614,
        56.1076
       ],
       [
        -3.2614,
        56.1076
       ],
       [
        -3.2613,
        56.1077
       ],
       [
        -3.2612,
        56.1077
       ],
       [
        -3.2612,
        56.1077
       ],
       [
        -3.2611,
        56.1078
       ],
       [
        -3.2611,
        56.1078
       ],
       [
        -3.2611,
        56.1079
       ],
       [
        -3.2611,
        56.1079
       ],
       [
        -3.2611,
        56.1079
       ],
       [
        -3.2611,
        56.1079
       ],
       [
        -3.2611,
        56.108
       ],
       [
        -3.2612,
        56.108
       ],
       [
        -3.2612,
        56.108
       ],
       [
        -3.2613,
        56.108
       ],
       [
        -3.2614,
        56.1081
       ],
       [
        -3.2616,
        56.1081
       ],
       [
        -3.2618,
        56.1082
       ],
       [
        -3.2621,
        56.1082
       ],
       [
        -3.2622,
        56.1083
       ],
       [
        -3.2625,
        56.1083
       ],
       [
        -3.2628,
        56.1084
       ],
       [
        -3.2628,
        56.1084
       ],
       [
        -3.2629,
        56.1084
       ],
       [
        -3.263,
        56.1084
       ],
       [
        -3.2632,
        56.1084
       ],
       [
        -3.2634,
        56.1085
       ],
       [
        -3.2637,
        56.1085
       ],
       [
        -3.264,
        56.1085
       ],
       [
        -3.2641,
        56.1085
       ],
       [
        -3.2642,
        56.1085
       ],
       [
        -3.2643,
        56.1085
       ],
       [
        -3.2643,
        56.1085
       ],
       [
        -3.2644,
        56.1085
       ],
       [
        -3.2644,
        56.1085
       ],
       [
        -3.2644,
        56.1085
       ],
       [
        -3.2645,
        56.1085
       ],
       [
        -3.2645,
        56.1086
       ],
       [
        -3.2645,
        56.1086
       ],
       [
        -3.2646,
        56.1087
       ],
       [
        -3.2646,
        56.1088
       ],
       [
        -3.2647,
        56.1088
       ],
       [
        -3.2647,
        56.1088
       ],
       [
        -3.2647,
        56.1088
       ],
       [
        -3.2647,
        56.1088
       ],
       [
        -3.2663,
        56.1086
       ],
       [
        -3.2663,
        56.1086
       ],
       [
        -3.2664,
        56.1086
       ],
       [
        -3.2666,
        56.1092
       ],
       [
        -3.2667,
        56.1093
       ],
       [
        -3.2667,
        56.1095
       ],
       [
        -3.2652,
        56.1098
       ],
       [
        -3.2655,
        56.1098
       ],
       [
        -3.2658,
        56.1098
       ],
       [
        -3.2659,
        56.1098
       ],
       [
        -3.266,
        56.1098
       ],
       [
        -3.2661,
        56.1098
       ],
       [
        -3.2661,
        56.1098
       ],
       [
        -3.2662,
        56.1098
       ],
       [
        -3.2664,
        56.1098
       ],
       [
        -3.2666,
        56.1099
       ],
       [
        -3.2666,
        56.1099
       ],
       [
        -3.2667,
        56.1099
       ],
       [
        -3.2667,
        56.1099
       ],
       [
        -3.2669,
        56.1099
       ],
       [
        -3.267,
        56.1099
       ],
       [
        -3.2672,
        56.1099
       ],
       [
        -3.2675,
        56.1099
       ],
       [
        -3.2676,
        56.1099
       ],
       [
        -3.2678,
        56.1099
       ],
       [
        -3.2679,
        56.1099
       ],
       [
        -3.268,
        56.1099
       ],
       [
        -3.2681,
        56.1099
       ],
       [
        -3.2681,
        56.1099
       ],
       [
        -3.2681,
        56.1099
       ],
       [
        -3.2683,
        56.1099
       ],
       [
        -3.2683,
        56.1099
       ],
       [
        -3.2684,
        56.1098
       ],
       [
        -3.2685,
        56.1098
       ],
       [
        -3.2685,
        56.1098
       ],
       [
        -3.2686,
        56.1098
       ],
       [
        -3.2687,
        56.1098
       ],
       [
        -3.2687,
        56.1098
       ],
       [
        -3.2688,
        56.1097
       ],
       [
        -3.2689,
        56.1097
       ],
       [
        -3.269,
        56.1096
       ],
       [
        -3.2693,
        56.1095
       ],
       [
        -3.2694,
        56.1095
       ],
       [
        -3.2694,
        56.1095
       ],
       [
        -3.2695,
        56.1095
       ],
       [
        -3.2696,
        56.1094
       ],
       [
        -3.2696,
        56.1094
       ],
       [
        -3.2697,
        56.1094
       ],
       [
        -3.2699,
        56.1094
       ],
       [
        -3.27,
        56.1094
       ],
       [
        -3.27,
        56.1093
       ],
       [
        -3.27,
        56.1093
       ],
       [
        -3.27,
        56.1093
       ],
       [
        -3.27,
        56.1093
       ],
       [
        -3.27,
        56.1093
       ],
       [
        -3.2701,
        56.1093
       ],
       [
        -3.2701,
        56.1093
       ],
       [
        -3.2701,
        56.1093
       ],
       [
        -3.2701,
        56.1093
       ],
       [
        -3.2702,
        56.1093
       ],
       [
        -3.2702,
        56.1093
       ],
       [
        -3.2702,
        56.1093
       ],
       [
        -3.2702,
        56.1093
       ],
       [
        -3.2702,
        56.1093
       ],
       [
        -3.2702,
        56.1093
       ],
       [
        -3.2702,
        56.1093
       ],
       [
        -3.2702,
        56.1093
       ],
       [
        -3.2704,
        56.1093
       ],
       [
        -3.2708,
        56.1092
       ],
       [
        -3.271,
        56.1091
       ],
       [
        -3.2711,
        56.1091
       ],
       [
        -3.2714,
        56.109
       ],
       [
        -3.2715,
        56.109
       ],
       [
        -3.2715,
        56.1089
       ],
       [
        -3.2715,
        56.1089
       ],
       [
        -3.2716,
        56.1089
       ],
       [
        -3.2718,
        56.1089
       ],
       [
        -3.2718,
        56.1089
       ],
       [
        -3.2722,
        56.1088
       ],
       [
        -3.2722,
        56.1087
       ],
       [
        -3.2723,
        56.1087
       ],
       [
        -3.2723,
        56.1087
       ],
       [
        -3.2723,
        56.1087
       ],
       [
        -3.2724,
        56.1087
       ],
       [
        -3.2724,
        56.1087
       ],
       [
        -3.2725,
        56.1087
       ],
       [
        -3.2725,
        56.1087
       ],
       [
        -3.2725,
        56.1087
       ],
       [
        -3.2726,
        56.1087
       ],
       [
        -3.2727,
        56.1086
       ],
       [
        -3.2729,
        56.1086
       ],
       [
        -3.273,
        56.1085
       ],
       [
        -3.2732,
        56.1085
       ],
       [
        -3.2733,
        56.1085
       ],
       [
        -3.2733,
        56.1085
       ],
       [
        -3.2733,
        56.1085
       ],
       [
        -3.2734,
        56.1084
       ],
       [
        -3.2734,
        56.1084
       ],
       [
        -3.2734,
        56.1084
       ],
       [
        -3.2735,
        56.1084
       ],
       [
        -3.2735,
        56.1084
       ],
       [
        -3.2739,
        56.1084
       ],
       [
        -3.2742,
        56.1083
       ],
       [
        -3.2744,
        56.1083
       ],
       [
        -3.2746,
        56.1082
       ],
       [
        -3.2749,
        56.1081
       ],
       [
        -3.2749,
        56.1081
       ],
       [
        -3.275,
        56.1081
       ],
       [
        -3.2757,
        56.108
       ],
       [
        -3.2761,
        56.1079
       ],
       [
        -3.2767,
        56.1079
       ],
       [
        -3.2769,
        56.1078
       ],
       [
        -3.277,
        56.1078
       ],
       [
        -3.277,
        56.1078
       ],
       [
        -3.277,
        56.1078
       ],
       [
        -3.2771,
        56.1078
       ],
       [
        -3.2772,
        56.1078
       ],
       [
        -3.2773,
        56.1078
       ],
       [
        -3.2774,
        56.1077
       ],
       [
        -3.2778,
        56.1077
       ],
       [
        -3.2783,
        56.1076
       ],
       [
        -3.2787,
        56.1075
       ],
       [
        -3.279,
        56.1075
       ],
       [
        -3.2791,
        56.1074
       ],
       [
        -3.2791,
        56.1074
       ],
       [
        -3.2793,
        56.1074
       ],
       [
        -3.2794,
        56.1074
       ],
       [
        -3.2795,
        56.1074
       ],
       [
        -3.2795,
        56.1073
       ],
       [
        -3.2796,
        56.1073
       ],
       [
        -3.2797,
        56.1073
       ],
       [
        -3.2797,
        56.1073
       ],
       [
        -3.2797,
        56.1073
       ],
       [
        -3.2797,
        56.1073
       ],
       [
        -3.2798,
        56.1073
       ],
       [
        -3.2798,
        56.1073
       ],
       [
        -3.2798,
        56.1073
       ],
       [
        -3.2799,
        56.1072
       ],
       [
        -3.2801,
        56.1071
       ],
       [
        -3.2801,
        56.1071
       ],
       [
        -3.2802,
        56.1071
       ],
       [
        -3.2804,
        56.107
       ],
       [
        -3.2805,
        56.107
       ],
       [
        -3.2806,
        56.107
       ],
       [
        -3.2808,
        56.107
       ],
       [
        -3.2808,
        56.107
       ],
       [
        -3.2809,
        56.1069
       ],
       [
        -3.2809,
        56.1069
       ],
       [
        -3.281,
        56.1069
       ],
       [
        -3.2811,
        56.1069
       ],
       [
        -3.2812,
        56.1069
       ],
       [
        -3.2812,
        56.1068
       ],
       [
        -3.2813,
        56.1068
       ],
       [
        -3.2819,
        56.1065
       ],
       [
        -3.282,
        56.1064
       ],
       [
        -3.2821,
        56.1063
       ],
       [
        -3.2822,
        56.1063
       ],
       [
        -3.2822,
        56.1063
       ],
       [
        -3.2822,
        56.1063
       ],
       [
        -3.2822,
        56.1063
       ],
       [
        -3.2822,
        56.1062
       ],
       [
        -3.2822,
        56.1062
       ],
       [
        -3.2821,
        56.1061
       ],
       [
        -3.2821,
        56.1061
       ],
       [
        -3.2821,
        56.1061
       ],
       [
        -3.2822,
        56.1061
       ],
       [
        -3.2823,
        56.1061
       ],
       [
        -3.2823,
        56.1061
       ],
       [
        -3.2824,
        56.1061
       ],
       [
        -3.2824,
        56.1061
       ],
       [
        -3.2825,
        56.1061
       ],
       [
        -3.2826,
        56.106
       ],
       [
        -3.283,
        56.1059
       ],
       [
        -3.2832,
        56.1059
       ],
       [
        -3.2832,
        56.1059
       ],
       [
        -3.2832,
        56.1059
       ],
       [
        -3.2833,
        56.1058
       ],
       [
        -3.2833,
        56.1058
       ],
       [
        -3.2833,
        56.1058
       ],
       [
        -3.2832,
        56.1058
       ],
       [
        -3.2828,
        56.1058
       ],
       [
        -3.2825,
        56.1058
       ],
       [
        -3.2822,
        56.1058
       ],
       [
        -3.2821,
        56.1057
       ],
       [
        -3.282,
        56.1057
       ],
       [
        -3.2817,
        56.1057
       ],
       [
        -3.2814,
        56.1057
       ],
       [
        -3.2812,
        56.1057
       ],
       [
        -3.2808,
        56.1057
       ],
       [
        -3.2806,
        56.1057
       ],
       [
        -3.2803,
        56.1057
       ],
       [
        -3.2801,
        56.1057
       ],
       [
        -3.2799,
        56.1057
       ],
       [
        -3.2797,
        56.1057
       ],
       [
        -3.2796,
        56.1057
       ],
       [
        -3.2795,
        56.1057
       ],
       [
        -3.2794,
        56.1056
       ],
       [
        -3.2793,
        56.1056
       ],
       [
        -3.2793,
        56.1056
       ],
       [
        -3.2793,
        56.1056
       ],
       [
        -3.2793,
        56.1056
       ],
       [
        -3.2793,
        56.1056
       ],
       [
        -3.2792,
        56.1055
       ],
       [
        -3.2792,
        56.1055
       ],
       [
        -3.2789,
        56.1053
       ],
       [
        -3.2786,
        56.1051
       ],
       [
        -3.2786,
        56.1051
       ],
       [
        -3.2785,
        56.1051
       ],
       [
        -3.2785,
        56.1051
       ],
       [
        -3.2784,
        56.105
       ],
       [
        -3.2783,
        56.105
       ],
       [
        -3.2782,
        56.105
       ],
       [
        -3.2782,
        56.1049
       ],
       [
        -3.2781,
        56.1049
       ],
       [
        -3.278,
        56.1049
       ],
       [
        -3.278,
        56.1049
       ],
       [
        -3.2779,
        56.105
       ],
       [
        -3.2778,
        56.105
       ],
       [
        -3.2777,
        56.105
       ],
       [
        -3.2776,
        56.105
       ],
       [
        -3.2776,
        56.105
       ],
       [
        -3.2775,
        56.105
       ],
       [
        -3.2775,
        56.105
       ],
       [
        -3.2775,
        56.105
       ],
       [
        -3.2775,
        56.105
       ],
       [
        -3.2774,
        56.105
       ],
       [
        -3.2774,
        56.105
       ],
       [
        -3.2774,
        56.105
       ],
       [
        -3.2773,
        56.105
       ],
       [
        -3.2773,
        56.105
       ],
       [
        -3.2773,
        56.105
       ],
       [
        -3.2772,
        56.105
       ],
       [
        -3.2772,
        56.1049
       ],
       [
        -3.2772,
        56.1049
       ],
       [
        -3.2772,
        56.1049
       ],
       [
        -3.2771,
        56.1049
       ],
       [
        -3.2771,
        56.1049
       ],
       [
        -3.2771,
        56.1048
       ],
       [
        -3.277,
        56.1047
       ],
       [
        -3.2769,
        56.1046
       ],
       [
        -3.2768,
        56.1045
       ],
       [
        -3.2768,
        56.1045
       ],
       [
        -3.2767,
        56.1044
       ],
       [
        -3.2766,
        56.1044
       ],
       [
        -3.2765,
        56.1043
       ],
       [
        -3.2764,
        56.1043
       ],
       [
        -3.2763,
        56.1042
       ],
       [
        -3.2762,
        56.1042
       ],
       [
        -3.2758,
        56.1041
       ],
       [
        -3.2757,
        56.104
       ],
       [
        -3.2755,
        56.1039
       ],
       [
        -3.2753,
        56.1039
       ],
       [
        -3.2752,
        56.1038
       ],
       [
        -3.2752,
        56.1038
       ],
       [
        -3.2752,
        56.1038
       ],
       [
        -3.2752,
        56.1038
       ],
       [
        -3.2751,
        56.1038
       ],
       [
        -3.2751,
        56.1038
       ],
       [
        -3.2751,
        56.1038
       ],
       [
        -3.2751,
        56.1038
       ],
       [
        -3.2751,
        56.1038
       ],
       [
        -3.2751,
        56.1038
       ],
       [
        -3.2751,
        56.1037
       ],
       [
        -3.2751,
        56.1037
       ],
       [
        -3.275,
        56.1037
       ],
       [
        -3.275,
        56.1037
       ],
       [
        -3.275,
        56.1037
       ],
       [
        -3.275,
        56.1037
       ],
       [
        -3.275,
        56.1037
       ],
       [
        -3.2749,
        56.1037
       ],
       [
        -3.2749,
        56.1036
       ],
       [
        -3.2748,
        56.1036
       ],
       [
        -3.2748,
        56.1036
       ],
       [
        -3.2747,
        56.1035
       ],
       [
        -3.2746,
        56.1035
       ],
       [
        -3.2746,
        56.1035
       ],
       [
        -3.2744,
        56.1034
       ],
       [
        -3.2744,
        56.1034
       ],
       [
        -3.2744,
        56.1034
       ],
       [
        -3.2743,
        56.1034
       ],
       [
        -3.2743,
        56.1034
       ],
       [
        -3.2742,
        56.1034
       ],
       [
        -3.2741,
        56.1034
       ],
       [
        -3.274,
        56.1034
       ],
       [
        -3.2739,
        56.1034
       ],
       [
        -3.2738,
        56.1034
       ],
       [
        -3.2738,
        56.1034
       ],
       [
        -3.2737,
        56.1035
       ],
       [
        -3.2735,
        56.1036
       ],
       [
        -3.2735,
        56.1036
       ],
       [
        -3.2735,
        56.1036
       ],
       [
        -3.2731,
        56.1032
       ],
       [
        -3.2731,
        56.1032
       ],
       [
        -3.2729,
        56.103
       ],
       [
        -3.2729,
        56.103
       ],
       [
        -3.2726,
        56.1026
       ],
       [
        -3.2725,
        56.1025
       ],
       [
        -3.2724,
        56.1024
       ],
       [
        -3.2724,
        56.1023
       ],
       [
        -3.2721,
        56.102
       ],
       [
        -3.2719,
        56.1018
       ],
       [
        -3.2717,
        56.1015
       ],
       [
        -3.2716,
        56.1014
       ],
       [
        -3.2716,
        56.1014
       ],
       [
        -3.2715,
        56.1013
       ],
       [
        -3.2714,
        56.1011
       ],
       [
        -3.2713,
        56.1011
       ],
       [
        -3.2713,
        56.101
       ],
       [
        -3.2712,
        56.101
       ],
       [
        -3.2712,
        56.101
       ]
      ]
     ]
    ]
   },
   "properties": {
    "slug": "cato-auchtertool",
    "reference": "26/01243/PPP",
    "local_auth": "Fife",
    "application_type": "permission_in_principle",
    "is_primary": true,
    "official_area_m2": 685291,
    "source": "spatialhub_planning_applications_official",
    "source_id": "src-spatialhub-planning-applications",
    "licence": "OGL v3",
    "retrieved_date": "2026-07-30"
   }
  },
  {
   "type": "Feature",
   "geometry": {
    "type": "MultiPolygon",
    "coordinates": [
     [
      [
       [
        -3.2678,
        56.1099
       ],
       [
        -3.2679,
        56.1099
       ],
       [
        -3.268,
        56.1099
       ],
       [
        -3.2681,
        56.1099
       ],
       [
        -3.2681,
        56.1099
       ],
       [
        -3.2681,
        56.1099
       ],
       [
        -3.2683,
        56.1099
       ],
       [
        -3.2683,
        56.1099
       ],
       [
        -3.2684,
        56.1098
       ],
       [
        -3.2685,
        56.1098
       ],
       [
        -3.2685,
        56.1098
       ],
       [
        -3.2686,
        56.1098
       ],
       [
        -3.2687,
        56.1098
       ],
       [
        -3.2687,
        56.1098
       ],
       [
        -3.2688,
        56.1097
       ],
       [
        -3.2689,
        56.1097
       ],
       [
        -3.269,
        56.1096
       ],
       [
        -3.2693,
        56.1095
       ],
       [
        -3.2694,
        56.1095
       ],
       [
        -3.2694,
        56.1095
       ],
       [
        -3.2695,
        56.1095
       ],
       [
        -3.2696,
        56.1094
       ],
       [
        -3.2696,
        56.1094
       ],
       [
        -3.2697,
        56.1094
       ],
       [
        -3.2699,
        56.1094
       ],
       [
        -3.27,
        56.1094
       ],
       [
        -3.27,
        56.1093
       ],
       [
        -3.27,
        56.1093
       ],
       [
        -3.27,
        56.1093
       ],
       [
        -3.27,
        56.1093
       ],
       [
        -3.27,
        56.1093
       ],
       [
        -3.2701,
        56.1093
       ],
       [
        -3.2701,
        56.1093
       ],
       [
        -3.2701,
        56.1093
       ],
       [
        -3.2701,
        56.1093
       ],
       [
        -3.2702,
        56.1093
       ],
       [
        -3.2702,
        56.1093
       ],
       [
        -3.2702,
        56.1093
       ],
       [
        -3.2702,
        56.1093
       ],
       [
        -3.2702,
        56.1093
       ],
       [
        -3.2702,
        56.1093
       ],
       [
        -3.2702,
        56.1093
       ],
       [
        -3.2702,
        56.1093
       ],
       [
        -3.2704,
        56.1093
       ],
       [
        -3.2708,
        56.1092
       ],
       [
        -3.271,
        56.1091
       ],
       [
        -3.2711,
        56.1091
       ],
       [
        -3.2714,
        56.109
       ],
       [
        -3.2715,
        56.109
       ],
       [
        -3.2715,
        56.1089
       ],
       [
        -3.2715,
        56.1089
       ],
       [
        -3.2716,
        56.1089
       ],
       [
        -3.2718,
        56.1089
       ],
       [
        -3.2718,
        56.1089
       ],
       [
        -3.2722,
        56.1088
       ],
       [
        -3.2722,
        56.1087
       ],
       [
        -3.2723,
        56.1087
       ],
       [
        -3.2723,
        56.1087
       ],
       [
        -3.2723,
        56.1087
       ],
       [
        -3.2724,
        56.1087
       ],
       [
        -3.2724,
        56.1087
       ],
       [
        -3.2725,
        56.1087
       ],
       [
        -3.2725,
        56.1087
       ],
       [
        -3.2725,
        56.1087
       ],
       [
        -3.2726,
        56.1087
       ],
       [
        -3.2727,
        56.1086
       ],
       [
        -3.2729,
        56.1086
       ],
       [
        -3.273,
        56.1085
       ],
       [
        -3.2732,
        56.1085
       ],
       [
        -3.2733,
        56.1085
       ],
       [
        -3.2733,
        56.1085
       ],
       [
        -3.2733,
        56.1085
       ],
       [
        -3.2734,
        56.1084
       ],
       [
        -3.2734,
        56.1084
       ],
       [
        -3.2734,
        56.1084
       ],
       [
        -3.2735,
        56.1084
       ],
       [
        -3.2735,
        56.1084
       ],
       [
        -3.2739,
        56.1084
       ],
       [
        -3.2742,
        56.1083
       ],
       [
        -3.2744,
        56.1083
       ],
       [
        -3.2746,
        56.1082
       ],
       [
        -3.2749,
        56.1081
       ],
       [
        -3.2749,
        56.1081
       ],
       [
        -3.275,
        56.1081
       ],
       [
        -3.2757,
        56.108
       ],
       [
        -3.2761,
        56.1079
       ],
       [
        -3.2767,
        56.1079
       ],
       [
        -3.2769,
        56.1078
       ],
       [
        -3.277,
        56.1078
       ],
       [
        -3.277,
        56.1078
       ],
       [
        -3.277,
        56.1078
       ],
       [
        -3.2771,
        56.1078
       ],
       [
        -3.2772,
        56.1078
       ],
       [
        -3.2773,
        56.1078
       ],
       [
        -3.2774,
        56.1077
       ],
       [
        -3.2778,
        56.1077
       ],
       [
        -3.2783,
        56.1076
       ],
       [
        -3.2787,
        56.1075
       ],
       [
        -3.279,
        56.1075
       ],
       [
        -3.2791,
        56.1074
       ],
       [
        -3.2791,
        56.1074
       ],
       [
        -3.2793,
        56.1074
       ],
       [
        -3.2794,
        56.1074
       ],
       [
        -3.2795,
        56.1074
       ],
       [
        -3.2795,
        56.1073
       ],
       [
        -3.2796,
        56.1073
       ],
       [
        -3.2797,
        56.1073
       ],
       [
        -3.2797,
        56.1073
       ],
       [
        -3.2797,
        56.1073
       ],
       [
        -3.2797,
        56.1073
       ],
       [
        -3.2798,
        56.1073
       ],
       [
        -3.2798,
        56.1073
       ],
       [
        -3.2798,
        56.1073
       ],
       [
        -3.2799,
        56.1072
       ],
       [
        -3.2801,
        56.1071
       ],
       [
        -3.2801,
        56.1071
       ],
       [
        -3.2802,
        56.1071
       ],
       [
        -3.2804,
        56.107
       ],
       [
        -3.2805,
        56.107
       ],
       [
        -3.2806,
        56.107
       ],
       [
        -3.2808,
        56.107
       ],
       [
        -3.2808,
        56.107
       ],
       [
        -3.2809,
        56.1069
       ],
       [
        -3.2809,
        56.1069
       ],
       [
        -3.281,
        56.1069
       ],
       [
        -3.2811,
        56.1069
       ],
       [
        -3.2812,
        56.1069
       ],
       [
        -3.2812,
        56.1068
       ],
       [
        -3.2813,
        56.1068
       ],
       [
        -3.2819,
        56.1065
       ],
       [
        -3.282,
        56.1064
       ],
       [
        -3.2821,
        56.1063
       ],
       [
        -3.2822,
        56.1063
       ],
       [
        -3.2822,
        56.1063
       ],
       [
        -3.2822,
        56.1063
       ],
       [
        -3.2822,
        56.1063
       ],
       [
        -3.2822,
        56.1062
       ],
       [
        -3.2822,
        56.1062
       ],
       [
        -3.2821,
        56.1061
       ],
       [
        -3.2821,
        56.1061
       ],
       [
        -3.2821,
        56.1061
       ],
       [
        -3.2822,
        56.1061
       ],
       [
        -3.2823,
        56.1061
       ],
       [
        -3.2823,
        56.1061
       ],
       [
        -3.2824,
        56.1061
       ],
       [
        -3.2824,
        56.1061
       ],
       [
        -3.2825,
        56.1061
       ],
       [
        -3.2826,
        56.106
       ],
       [
        -3.283,
        56.1059
       ],
       [
        -3.2832,
        56.1059
       ],
       [
        -3.2832,
        56.1059
       ],
       [
        -3.2832,
        56.1059
       ],
       [
        -3.2833,
        56.1058
       ],
       [
        -3.2836,
        56.1058
       ],
       [
        -3.2839,
        56.1059
       ],
       [
        -3.284,
        56.1059
       ],
       [
        -3.2843,
        56.1059
       ],
       [
        -3.2843,
        56.1059
       ],
       [
        -3.2845,
        56.106
       ],
       [
        -3.2846,
        56.106
       ],
       [
        -3.2847,
        56.1059
       ],
       [
        -3.2849,
        56.1059
       ],
       [
        -3.2851,
        56.1057
       ],
       [
        -3.2851,
        56.1057
       ],
       [
        -3.2851,
        56.1057
       ],
       [
        -3.285,
        56.1056
       ],
       [
        -3.285,
        56.1056
       ],
       [
        -3.285,
        56.1056
       ],
       [
        -3.2849,
        56.1056
       ],
       [
        -3.2848,
        56.1056
       ],
       [
        -3.2845,
        56.1056
       ],
       [
        -3.2838,
        56.1056
       ],
       [
        -3.2822,
        56.1056
       ],
       [
        -3.2805,
        56.1055
       ],
       [
        -3.2805,
        56.1055
       ],
       [
        -3.2803,
        56.1055
       ],
       [
        -3.2802,
        56.1055
       ],
       [
        -3.2801,
        56.1055
       ],
       [
        -3.2801,
        56.1055
       ],
       [
        -3.28,
        56.1055
       ],
       [
        -3.28,
        56.1055
       ],
       [
        -3.28,
        56.1055
       ],
       [
        -3.2799,
        56.1055
       ],
       [
        -3.2799,
        56.1055
       ],
       [
        -3.2798,
        56.1055
       ],
       [
        -3.2798,
        56.1055
       ],
       [
        -3.2796,
        56.1055
       ],
       [
        -3.2796,
        56.1055
       ],
       [
        -3.2795,
        56.1055
       ],
       [
        -3.2795,
        56.1055
       ],
       [
        -3.2795,
        56.1055
       ],
       [
        -3.2795,
        56.1055
       ],
       [
        -3.2795,
        56.1055
       ],
       [
        -3.2794,
        56.1055
       ],
       [
        -3.2794,
        56.1055
       ],
       [
        -3.2794,
        56.1056
       ],
       [
        -3.2794,
        56.1056
       ],
       [
        -3.2793,
        56.1056
       ],
       [
        -3.2793,
        56.1056
       ],
       [
        -3.2793,
        56.1056
       ],
       [
        -3.2793,
        56.1056
       ],
       [
        -3.2793,
        56.1056
       ],
       [
        -3.2792,
        56.1055
       ],
       [
        -3.2792,
        56.1055
       ],
       [
        -3.2789,
        56.1053
       ],
       [
        -3.2786,
        56.1051
       ],
       [
        -3.2786,
        56.1051
       ],
       [
        -3.2785,
        56.1051
       ],
       [
        -3.2785,
        56.1051
       ],
       [
        -3.2784,
        56.105
       ],
       [
        -3.2783,
        56.105
       ],
       [
        -3.2782,
        56.105
       ],
       [
        -3.2782,
        56.1049
       ],
       [
        -3.2781,
        56.1049
       ],
       [
        -3.278,
        56.1049
       ],
       [
        -3.278,
        56.1049
       ],
       [
        -3.2779,
        56.105
       ],
       [
        -3.2778,
        56.105
       ],
       [
        -3.2777,
        56.105
       ],
       [
        -3.2776,
        56.105
       ],
       [
        -3.2776,
        56.105
       ],
       [
        -3.2775,
        56.105
       ],
       [
        -3.2775,
        56.105
       ],
       [
        -3.2775,
        56.105
       ],
       [
        -3.2775,
        56.105
       ],
       [
        -3.2774,
        56.105
       ],
       [
        -3.2774,
        56.105
       ],
       [
        -3.2774,
        56.105
       ],
       [
        -3.2773,
        56.105
       ],
       [
        -3.2773,
        56.105
       ],
       [
        -3.2773,
        56.105
       ],
       [
        -3.2772,
        56.105
       ],
       [
        -3.2772,
        56.1049
       ],
       [
        -3.2772,
        56.1049
       ],
       [
        -3.2772,
        56.1049
       ],
       [
        -3.2771,
        56.1049
       ],
       [
        -3.2771,
        56.1049
       ],
       [
        -3.2771,
        56.1048
       ],
       [
        -3.277,
        56.1047
       ],
       [
        -3.2769,
        56.1046
       ],
       [
        -3.2768,
        56.1045
       ],
       [
        -3.2768,
        56.1045
       ],
       [
        -3.2767,
        56.1044
       ],
       [
        -3.2766,
        56.1044
       ],
       [
        -3.2765,
        56.1043
       ],
       [
        -3.2764,
        56.1043
       ],
       [
        -3.2763,
        56.1042
       ],
       [
        -3.2762,
        56.1042
       ],
       [
        -3.2758,
        56.1041
       ],
       [
        -3.2757,
        56.104
       ],
       [
        -3.2755,
        56.1039
       ],
       [
        -3.2753,
        56.1039
       ],
       [
        -3.2752,
        56.1038
       ],
       [
        -3.2752,
        56.1038
       ],
       [
        -3.2752,
        56.1038
       ],
       [
        -3.2752,
        56.1038
       ],
       [
        -3.2751,
        56.1038
       ],
       [
        -3.2751,
        56.1038
       ],
       [
        -3.2751,
        56.1038
       ],
       [
        -3.2751,
        56.1038
       ],
       [
        -3.2751,
        56.1038
       ],
       [
        -3.2751,
        56.1038
       ],
       [
        -3.2751,
        56.1037
       ],
       [
        -3.2751,
        56.1037
       ],
       [
        -3.275,
        56.1037
       ],
       [
        -3.275,
        56.1037
       ],
       [
        -3.275,
        56.1037
       ],
       [
        -3.275,
        56.1037
       ],
       [
        -3.275,
        56.1037
       ],
       [
        -3.2749,
        56.1037
       ],
       [
        -3.2749,
        56.1036
       ],
       [
        -3.2748,
        56.1036
       ],
       [
        -3.2748,
        56.1036
       ],
       [
        -3.2747,
        56.1035
       ],
       [
        -3.2746,
        56.1035
       ],
       [
        -3.2746,
        56.1035
       ],
       [
        -3.2744,
        56.1034
       ],
       [
        -3.2744,
        56.1034
       ],
       [
        -3.2744,
        56.1034
       ],
       [
        -3.2743,
        56.1034
       ],
       [
        -3.2743,
        56.1034
       ],
       [
        -3.2742,
        56.1034
       ],
       [
        -3.2741,
        56.1034
       ],
       [
        -3.274,
        56.1034
       ],
       [
        -3.2739,
        56.1034
       ],
       [
        -3.2738,
        56.1034
       ],
       [
        -3.2738,
        56.1034
       ],
       [
        -3.2737,
        56.1035
       ],
       [
        -3.2735,
        56.1036
       ],
       [
        -3.2735,
        56.1036
       ],
       [
        -3.2735,
        56.1036
       ],
       [
        -3.2731,
        56.1032
       ],
       [
        -3.2731,
        56.1032
       ],
       [
        -3.2729,
        56.103
       ],
       [
        -3.2729,
        56.103
       ],
       [
        -3.2726,
        56.1026
       ],
       [
        -3.2725,
        56.1025
       ],
       [
        -3.2724,
        56.1024
       ],
       [
        -3.2724,
        56.1023
       ],
       [
        -3.2721,
        56.102
       ],
       [
        -3.2719,
        56.1018
       ],
       [
        -3.2717,
        56.1015
       ],
       [
        -3.2716,
        56.1014
       ],
       [
        -3.2716,
        56.1014
       ],
       [
        -3.2715,
        56.1013
       ],
       [
        -3.2714,
        56.1011
       ],
       [
        -3.2713,
        56.1011
       ],
       [
        -3.2713,
        56.101
       ],
       [
        -3.2712,
        56.101
       ],
       [
        -3.2712,
        56.101
       ],
       [
        -3.2712,
        56.101
       ],
       [
        -3.2709,
        56.1011
       ],
       [
        -3.2708,
        56.1011
       ],
       [
        -3.2707,
        56.1012
       ],
       [
        -3.2706,
        56.1012
       ],
       [
        -3.2705,
        56.1012
       ],
       [
        -3.2704,
        56.1013
       ],
       [
        -3.2703,
        56.1013
       ],
       [
        -3.2702,
        56.1014
       ],
       [
        -3.27,
        56.1015
       ],
       [
        -3.2698,
        56.1016
       ],
       [
        -3.2697,
        56.1016
       ],
       [
        -3.2696,
        56.1016
       ],
       [
        -3.2695,
        56.1017
       ],
       [
        -3.2693,
        56.1017
       ],
       [
        -3.269,
        56.1018
       ],
       [
        -3.2687,
        56.1018
       ],
       [
        -3.2684,
        56.1019
       ],
       [
        -3.2681,
        56.1019
       ],
       [
        -3.2678,
        56.102
       ],
       [
        -3.2671,
        56.1021
       ],
       [
        -3.2671,
        56.1021
       ],
       [
        -3.2668,
        56.1021
       ],
       [
        -3.2664,
        56.1022
       ],
       [
        -3.2661,
        56.1022
       ],
       [
        -3.266,
        56.1023
       ],
       [
        -3.2658,
        56.1023
       ],
       [
        -3.2657,
        56.1023
       ],
       [
        -3.2655,
        56.1023
       ],
       [
        -3.2654,
        56.1023
       ],
       [
        -3.2652,
        56.1023
       ],
       [
        -3.2651,
        56.1023
       ],
       [
        -3.265,
        56.1023
       ],
       [
        -3.2648,
        56.1023
       ],
       [
        -3.2645,
        56.1023
       ],
       [
        -3.2643,
        56.1023
       ],
       [
        -3.2642,
        56.1023
       ],
       [
        -3.2642,
        56.1023
       ],
       [
        -3.2641,
        56.1023
       ],
       [
        -3.2641,
        56.1023
       ],
       [
        -3.264,
        56.1023
       ],
       [
        -3.2639,
        56.1023
       ],
       [
        -3.2639,
        56.1023
       ],
       [
        -3.2638,
        56.1023
       ],
       [
        -3.2637,
        56.1023
       ],
       [
        -3.2636,
        56.1024
       ],
       [
        -3.2635,
        56.1024
       ],
       [
        -3.2635,
        56.1024
       ],
       [
        -3.2634,
        56.1024
       ],
       [
        -3.2634,
        56.1024
       ],
       [
        -3.2633,
        56.1025
       ],
       [
        -3.2632,
        56.1025
       ],
       [
        -3.263,
        56.1025
       ],
       [
        -3.2628,
        56.1026
       ],
       [
        -3.2626,
        56.1027
       ],
       [
        -3.2625,
        56.1027
       ],
       [
        -3.2625,
        56.1028
       ],
       [
        -3.2626,
        56.103
       ],
       [
        -3.2626,
        56.103
       ],
       [
        -3.2627,
        56.1032
       ],
       [
        -3.2627,
        56.1032
       ],
       [
        -3.2628,
        56.1033
       ],
       [
        -3.2629,
        56.1034
       ],
       [
        -3.2629,
        56.1035
       ],
       [
        -3.2635,
        56.1032
       ],
       [
        -3.2642,
        56.1038
       ],
       [
        -3.2645,
        56.1044
       ],
       [
        -3.2645,
        56.1044
       ],
       [
        -3.2645,
        56.1044
       ],
       [
        -3.2645,
        56.1044
       ],
       [
        -3.2645,
        56.1044
       ],
       [
        -3.2645,
        56.1044
       ],
       [
        -3.2645,
        56.1044
       ],
       [
        -3.2645,
        56.1044
       ],
       [
        -3.2645,
        56.1044
       ],
       [
        -3.2645,
        56.1044
       ],
       [
        -3.2645,
        56.1044
       ],
       [
        -3.2645,
        56.1045
       ],
       [
        -3.2645,
        56.1045
       ],
       [
        -3.2645,
        56.1045
       ],
       [
        -3.2645,
        56.1045
       ],
       [
        -3.2645,
        56.1045
       ],
       [
        -3.2645,
        56.1045
       ],
       [
        -3.2645,
        56.1045
       ],
       [
        -3.2645,
        56.1045
       ],
       [
        -3.2645,
        56.1045
       ],
       [
        -3.2645,
        56.1045
       ],
       [
        -3.2645,
        56.1045
       ],
       [
        -3.2645,
        56.1045
       ],
       [
        -3.2645,
        56.1045
       ],
       [
        -3.2645,
        56.1045
       ],
       [
        -3.2645,
        56.1045
       ],
       [
        -3.2645,
        56.1045
       ],
       [
        -3.2645,
        56.1045
       ],
       [
        -3.2645,
        56.1045
       ],
       [
        -3.2645,
        56.1045
       ],
       [
        -3.2644,
        56.1046
       ],
       [
        -3.2644,
        56.1046
       ],
       [
        -3.2644,
        56.1046
       ],
       [
        -3.2644,
        56.1046
       ],
       [
        -3.2644,
        56.1046
       ],
       [
        -3.2643,
        56.1046
       ],
       [
        -3.2642,
        56.1046
       ],
       [
        -3.2642,
        56.1047
       ],
       [
        -3.264,
        56.1047
       ],
       [
        -3.2639,
        56.1047
       ],
       [
        -3.2638,
        56.1048
       ],
       [
        -3.2637,
        56.1048
       ],
       [
        -3.2636,
        56.1048
       ],
       [
        -3.2635,
        56.1049
       ],
       [
        -3.2635,
        56.1049
       ],
       [
        -3.2635,
        56.1049
       ],
       [
        -3.2634,
        56.1049
       ],
       [
        -3.2633,
        56.1049
       ],
       [
        -3.2633,
        56.105
       ],
       [
        -3.2632,
        56.105
       ],
       [
        -3.2632,
        56.105
       ],
       [
        -3.2631,
        56.105
       ],
       [
        -3.2631,
        56.105
       ],
       [
        -3.2631,
        56.105
       ],
       [
        -3.2631,
        56.105
       ],
       [
        -3.2631,
        56.105
       ],
       [
        -3.263,
        56.105
       ],
       [
        -3.263,
        56.105
       ],
       [
        -3.263,
        56.105
       ],
       [
        -3.263,
        56.105
       ],
       [
        -3.263,
        56.105
       ],
       [
        -3.263,
        56.105
       ],
       [
        -3.263,
        56.105
       ],
       [
        -3.263,
        56.105
       ],
       [
        -3.263,
        56.105
       ],
       [
        -3.2629,
        56.105
       ],
       [
        -3.2629,
        56.105
       ],
       [
        -3.2629,
        56.105
       ],
       [
        -3.2628,
        56.105
       ],
       [
        -3.2628,
        56.1049
       ],
       [
        -3.2627,
        56.1049
       ],
       [
        -3.2627,
        56.1049
       ],
       [
        -3.2626,
        56.1048
       ],
       [
        -3.2626,
        56.1048
       ],
       [
        -3.2625,
        56.1047
       ],
       [
        -3.2624,
        56.1047
       ],
       [
        -3.2624,
        56.1048
       ],
       [
        -3.2624,
        56.1048
       ],
       [
        -3.2623,
        56.1049
       ],
       [
        -3.2623,
        56.1049
       ],
       [
        -3.2623,
        56.1049
       ],
       [
        -3.2623,
        56.1049
       ],
       [
        -3.2622,
        56.1049
       ],
       [
        -3.2622,
        56.1049
       ],
       [
        -3.2622,
        56.105
       ],
       [
        -3.2622,
        56.105
       ],
       [
        -3.2621,
        56.1051
       ],
       [
        -3.2621,
        56.1051
       ],
       [
        -3.2621,
        56.1052
       ],
       [
        -3.2621,
        56.1052
       ],
       [
        -3.2621,
        56.1052
       ],
       [
        -3.262,
        56.1053
       ],
       [
        -3.262,
        56.1053
       ],
       [
        -3.262,
        56.1054
       ],
       [
        -3.262,
        56.1055
       ],
       [
        -3.262,
        56.1055
       ],
       [
        -3.262,
        56.1056
       ],
       [
        -3.262,
        56.1057
       ],
       [
        -3.262,
        56.1059
       ],
       [
        -3.262,
        56.106
       ],
       [
        -3.262,
        56.1062
       ],
       [
        -3.2621,
        56.1065
       ],
       [
        -3.2621,
        56.1065
       ],
       [
        -3.2621,
        56.1066
       ],
       [
        -3.2621,
        56.1067
       ],
       [
        -3.2621,
        56.1069
       ],
       [
        -3.2621,
        56.107
       ],
       [
        -3.2621,
        56.1071
       ],
       [
        -3.2621,
        56.1071
       ],
       [
        -3.262,
        56.1071
       ],
       [
        -3.262,
        56.1071
       ],
       [
        -3.2618,
        56.1073
       ],
       [
        -3.2618,
        56.1073
       ],
       [
        -3.2615,
        56.1075
       ],
       [
        -3.2614,
        56.1076
       ],
       [
        -3.2614,
        56.1076
       ],
       [
        -3.2613,
        56.1077
       ],
       [
        -3.2612,
        56.1077
       ],
       [
        -3.2612,
        56.1077
       ],
       [
        -3.2611,
        56.1078
       ],
       [
        -3.2611,
        56.1078
       ],
       [
        -3.2611,
        56.1079
       ],
       [
        -3.2611,
        56.1079
       ],
       [
        -3.2611,
        56.1079
       ],
       [
        -3.2611,
        56.1079
       ],
       [
        -3.2611,
        56.108
       ],
       [
        -3.2612,
        56.108
       ],
       [
        -3.2612,
        56.108
       ],
       [
        -3.2613,
        56.108
       ],
       [
        -3.2614,
        56.1081
       ],
       [
        -3.2616,
        56.1081
       ],
       [
        -3.2618,
        56.1082
       ],
       [
        -3.2621,
        56.1082
       ],
       [
        -3.2622,
        56.1083
       ],
       [
        -3.2625,
        56.1083
       ],
       [
        -3.2628,
        56.1084
       ],
       [
        -3.2628,
        56.1084
       ],
       [
        -3.2629,
        56.1084
       ],
       [
        -3.263,
        56.1084
       ],
       [
        -3.2632,
        56.1084
       ],
       [
        -3.2634,
        56.1085
       ],
       [
        -3.2637,
        56.1085
       ],
       [
        -3.264,
        56.1085
       ],
       [
        -3.2641,
        56.1085
       ],
       [
        -3.2642,
        56.1085
       ],
       [
        -3.2643,
        56.1085
       ],
       [
        -3.2643,
        56.1085
       ],
       [
        -3.2644,
        56.1085
       ],
       [
        -3.2644,
        56.1085
       ],
       [
        -3.2644,
        56.1085
       ],
       [
        -3.2645,
        56.1085
       ],
       [
        -3.2645,
        56.1086
       ],
       [
        -3.2645,
        56.1086
       ],
       [
        -3.2646,
        56.1087
       ],
       [
        -3.2646,
        56.1089
       ],
       [
        -3.2646,
        56.1089
       ],
       [
        -3.2646,
        56.1089
       ],
       [
        -3.2646,
        56.109
       ],
       [
        -3.2646,
        56.1091
       ],
       [
        -3.2646,
        56.1092
       ],
       [
        -3.2646,
        56.1094
       ],
       [
        -3.2646,
        56.1096
       ],
       [
        -3.2646,
        56.1097
       ],
       [
        -3.2646,
        56.1097
       ],
       [
        -3.2646,
        56.1097
       ],
       [
        -3.2646,
        56.1097
       ],
       [
        -3.2646,
        56.1098
       ],
       [
        -3.2646,
        56.1098
       ],
       [
        -3.2647,
        56.1098
       ],
       [
        -3.2647,
        56.1098
       ],
       [
        -3.2647,
        56.1098
       ],
       [
        -3.2648,
        56.1098
       ],
       [
        -3.2648,
        56.1098
       ],
       [
        -3.2649,
        56.1098
       ],
       [
        -3.265,
        56.1098
       ],
       [
        -3.2651,
        56.1098
       ],
       [
        -3.2652,
        56.1098
       ],
       [
        -3.2655,
        56.1098
       ],
       [
        -3.2658,
        56.1098
       ],
       [
        -3.2659,
        56.1098
       ],
       [
        -3.266,
        56.1098
       ],
       [
        -3.2661,
        56.1098
       ],
       [
        -3.2661,
        56.1098
       ],
       [
        -3.2662,
        56.1098
       ],
       [
        -3.2664,
        56.1098
       ],
       [
        -3.2666,
        56.1099
       ],
       [
        -3.2666,
        56.1099
       ],
       [
        -3.2667,
        56.1099
       ],
       [
        -3.2667,
        56.1099
       ],
       [
        -3.2669,
        56.1099
       ],
       [
        -3.267,
        56.1099
       ],
       [
        -3.2672,
        56.1099
       ],
       [
        -3.2675,
        56.1099
       ],
       [
        -3.2676,
        56.1099
       ],
       [
        -3.2678,
        56.1099
       ]
      ]
     ]
    ]
   },
   "properties": {
    "slug": "cato-auchtertool",
    "reference": "25/00552/PAN",
    "local_auth": "Fife",
    "application_type": "pan",
    "is_primary": false,
    "official_area_m2": 713391,
    "source": "spatialhub_planning_applications_official",
    "source_id": "src-spatialhub-planning-applications",
    "licence": "OGL v3",
    "retrieved_date": "2026-07-30"
   }
  },
  {
   "type": "Feature",
   "geometry": {
    "type": "MultiPolygon",
    "coordinates": [
     [
      [
       [
        -3.2678,
        56.1099
       ],
       [
        -3.2679,
        56.1099
       ],
       [
        -3.268,
        56.1099
       ],
       [
        -3.2681,
        56.1099
       ],
       [
        -3.2681,
        56.1099
       ],
       [
        -3.2681,
        56.1099
       ],
       [
        -3.2683,
        56.1099
       ],
       [
        -3.2683,
        56.1099
       ],
       [
        -3.2684,
        56.1098
       ],
       [
        -3.2685,
        56.1098
       ],
       [
        -3.2685,
        56.1098
       ],
       [
        -3.2686,
        56.1098
       ],
       [
        -3.2687,
        56.1098
       ],
       [
        -3.2687,
        56.1098
       ],
       [
        -3.2688,
        56.1097
       ],
       [
        -3.2689,
        56.1097
       ],
       [
        -3.269,
        56.1096
       ],
       [
        -3.2693,
        56.1095
       ],
       [
        -3.2694,
        56.1095
       ],
       [
        -3.2694,
        56.1095
       ],
       [
        -3.2695,
        56.1095
       ],
       [
        -3.2696,
        56.1094
       ],
       [
        -3.2696,
        56.1094
       ],
       [
        -3.2697,
        56.1094
       ],
       [
        -3.2699,
        56.1094
       ],
       [
        -3.27,
        56.1094
       ],
       [
        -3.27,
        56.1093
       ],
       [
        -3.27,
        56.1093
       ],
       [
        -3.27,
        56.1093
       ],
       [
        -3.27,
        56.1093
       ],
       [
        -3.27,
        56.1093
       ],
       [
        -3.2701,
        56.1093
       ],
       [
        -3.2701,
        56.1093
       ],
       [
        -3.2701,
        56.1093
       ],
       [
        -3.2701,
        56.1093
       ],
       [
        -3.2702,
        56.1093
       ],
       [
        -3.2702,
        56.1093
       ],
       [
        -3.2702,
        56.1093
       ],
       [
        -3.2702,
        56.1093
       ],
       [
        -3.2702,
        56.1093
       ],
       [
        -3.2702,
        56.1093
       ],
       [
        -3.2702,
        56.1093
       ],
       [
        -3.2702,
        56.1093
       ],
       [
        -3.2704,
        56.1093
       ],
       [
        -3.2708,
        56.1092
       ],
       [
        -3.271,
        56.1091
       ],
       [
        -3.2711,
        56.1091
       ],
       [
        -3.2714,
        56.109
       ],
       [
        -3.2715,
        56.109
       ],
       [
        -3.2715,
        56.1089
       ],
       [
        -3.2715,
        56.1089
       ],
       [
        -3.2716,
        56.1089
       ],
       [
        -3.2718,
        56.1089
       ],
       [
        -3.2718,
        56.1089
       ],
       [
        -3.2722,
        56.1088
       ],
       [
        -3.2722,
        56.1087
       ],
       [
        -3.2723,
        56.1087
       ],
       [
        -3.2723,
        56.1087
       ],
       [
        -3.2723,
        56.1087
       ],
       [
        -3.2724,
        56.1087
       ],
       [
        -3.2724,
        56.1087
       ],
       [
        -3.2725,
        56.1087
       ],
       [
        -3.2725,
        56.1087
       ],
       [
        -3.2725,
        56.1087
       ],
       [
        -3.2726,
        56.1087
       ],
       [
        -3.2727,
        56.1086
       ],
       [
        -3.2729,
        56.1086
       ],
       [
        -3.273,
        56.1085
       ],
       [
        -3.2732,
        56.1085
       ],
       [
        -3.2733,
        56.1085
       ],
       [
        -3.2733,
        56.1085
       ],
       [
        -3.2733,
        56.1085
       ],
       [
        -3.2734,
        56.1084
       ],
       [
        -3.2734,
        56.1084
       ],
       [
        -3.2734,
        56.1084
       ],
       [
        -3.2735,
        56.1084
       ],
       [
        -3.2735,
        56.1084
       ],
       [
        -3.2739,
        56.1084
       ],
       [
        -3.2742,
        56.1083
       ],
       [
        -3.2744,
        56.1083
       ],
       [
        -3.2746,
        56.1082
       ],
       [
        -3.2749,
        56.1081
       ],
       [
        -3.2749,
        56.1081
       ],
       [
        -3.275,
        56.1081
       ],
       [
        -3.2757,
        56.108
       ],
       [
        -3.2761,
        56.1079
       ],
       [
        -3.2767,
        56.1079
       ],
       [
        -3.2769,
        56.1078
       ],
       [
        -3.277,
        56.1078
       ],
       [
        -3.277,
        56.1078
       ],
       [
        -3.277,
        56.1078
       ],
       [
        -3.2771,
        56.1078
       ],
       [
        -3.2772,
        56.1078
       ],
       [
        -3.2773,
        56.1078
       ],
       [
        -3.2774,
        56.1077
       ],
       [
        -3.2778,
        56.1077
       ],
       [
        -3.2783,
        56.1076
       ],
       [
        -3.2787,
        56.1075
       ],
       [
        -3.279,
        56.1075
       ],
       [
        -3.2791,
        56.1074
       ],
       [
        -3.2791,
        56.1074
       ],
       [
        -3.2793,
        56.1074
       ],
       [
        -3.2794,
        56.1074
       ],
       [
        -3.2795,
        56.1074
       ],
       [
        -3.2795,
        56.1073
       ],
       [
        -3.2796,
        56.1073
       ],
       [
        -3.2797,
        56.1073
       ],
       [
        -3.2797,
        56.1073
       ],
       [
        -3.2797,
        56.1073
       ],
       [
        -3.2797,
        56.1073
       ],
       [
        -3.2798,
        56.1073
       ],
       [
        -3.2798,
        56.1073
       ],
       [
        -3.2798,
        56.1073
       ],
       [
        -3.2799,
        56.1072
       ],
       [
        -3.2801,
        56.1071
       ],
       [
        -3.2801,
        56.1071
       ],
       [
        -3.2802,
        56.1071
       ],
       [
        -3.2804,
        56.107
       ],
       [
        -3.2805,
        56.107
       ],
       [
        -3.2806,
        56.107
       ],
       [
        -3.2808,
        56.107
       ],
       [
        -3.2808,
        56.107
       ],
       [
        -3.2809,
        56.1069
       ],
       [
        -3.2809,
        56.1069
       ],
       [
        -3.281,
        56.1069
       ],
       [
        -3.2811,
        56.1069
       ],
       [
        -3.2812,
        56.1069
       ],
       [
        -3.2812,
        56.1068
       ],
       [
        -3.2813,
        56.1068
       ],
       [
        -3.2819,
        56.1065
       ],
       [
        -3.282,
        56.1064
       ],
       [
        -3.2821,
        56.1063
       ],
       [
        -3.2822,
        56.1063
       ],
       [
        -3.2822,
        56.1063
       ],
       [
        -3.2822,
        56.1063
       ],
       [
        -3.2822,
        56.1063
       ],
       [
        -3.2822,
        56.1062
       ],
       [
        -3.2822,
        56.1062
       ],
       [
        -3.2821,
        56.1061
       ],
       [
        -3.2821,
        56.1061
       ],
       [
        -3.2821,
        56.1061
       ],
       [
        -3.2822,
        56.1061
       ],
       [
        -3.2823,
        56.1061
       ],
       [
        -3.2823,
        56.1061
       ],
       [
        -3.2824,
        56.1061
       ],
       [
        -3.2824,
        56.1061
       ],
       [
        -3.2825,
        56.1061
       ],
       [
        -3.2826,
        56.106
       ],
       [
        -3.283,
        56.1059
       ],
       [
        -3.2832,
        56.1059
       ],
       [
        -3.2832,
        56.1059
       ],
       [
        -3.2832,
        56.1059
       ],
       [
        -3.2833,
        56.1058
       ],
       [
        -3.2836,
        56.1058
       ],
       [
        -3.2839,
        56.1059
       ],
       [
        -3.284,
        56.1059
       ],
       [
        -3.2843,
        56.1059
       ],
       [
        -3.2843,
        56.1059
       ],
       [
        -3.2845,
        56.106
       ],
       [
        -3.2846,
        56.106
       ],
       [
        -3.2847,
        56.1059
       ],
       [
        -3.2849,
        56.1059
       ],
       [
        -3.2851,
        56.1057
       ],
       [
        -3.2851,
        56.1057
       ],
       [
        -3.2851,
        56.1057
       ],
       [
        -3.285,
        56.1056
       ],
       [
        -3.285,
        56.1056
       ],
       [
        -3.285,
        56.1056
       ],
       [
        -3.2849,
        56.1056
       ],
       [
        -3.2848,
        56.1056
       ],
       [
        -3.2845,
        56.1056
       ],
       [
        -3.2838,
        56.1056
       ],
       [
        -3.2822,
        56.1056
       ],
       [
        -3.2805,
        56.1055
       ],
       [
        -3.2805,
        56.1055
       ],
       [
        -3.2803,
        56.1055
       ],
       [
        -3.2802,
        56.1055
       ],
       [
        -3.2801,
        56.1055
       ],
       [
        -3.2801,
        56.1055
       ],
       [
        -3.28,
        56.1055
       ],
       [
        -3.28,
        56.1055
       ],
       [
        -3.28,
        56.1055
       ],
       [
        -3.2799,
        56.1055
       ],
       [
        -3.2799,
        56.1055
       ],
       [
        -3.2798,
        56.1055
       ],
       [
        -3.2798,
        56.1055
       ],
       [
        -3.2796,
        56.1055
       ],
       [
        -3.2796,
        56.1055
       ],
       [
        -3.2795,
        56.1055
       ],
       [
        -3.2795,
        56.1055
       ],
       [
        -3.2795,
        56.1055
       ],
       [
        -3.2795,
        56.1055
       ],
       [
        -3.2795,
        56.1055
       ],
       [
        -3.2794,
        56.1055
       ],
       [
        -3.2794,
        56.1055
       ],
       [
        -3.2794,
        56.1056
       ],
       [
        -3.2794,
        56.1056
       ],
       [
        -3.2793,
        56.1056
       ],
       [
        -3.2793,
        56.1056
       ],
       [
        -3.2793,
        56.1056
       ],
       [
        -3.2793,
        56.1056
       ],
       [
        -3.2793,
        56.1056
       ],
       [
        -3.2792,
        56.1055
       ],
       [
        -3.2792,
        56.1055
       ],
       [
        -3.2789,
        56.1053
       ],
       [
        -3.2786,
        56.1051
       ],
       [
        -3.2786,
        56.1051
       ],
       [
        -3.2785,
        56.1051
       ],
       [
        -3.2785,
        56.1051
       ],
       [
        -3.2784,
        56.105
       ],
       [
        -3.2783,
        56.105
       ],
       [
        -3.2782,
        56.105
       ],
       [
        -3.2782,
        56.1049
       ],
       [
        -3.2781,
        56.1049
       ],
       [
        -3.278,
        56.1049
       ],
       [
        -3.278,
        56.1049
       ],
       [
        -3.2779,
        56.105
       ],
       [
        -3.2778,
        56.105
       ],
       [
        -3.2777,
        56.105
       ],
       [
        -3.2776,
        56.105
       ],
       [
        -3.2776,
        56.105
       ],
       [
        -3.2775,
        56.105
       ],
       [
        -3.2775,
        56.105
       ],
       [
        -3.2775,
        56.105
       ],
       [
        -3.2775,
        56.105
       ],
       [
        -3.2774,
        56.105
       ],
       [
        -3.2774,
        56.105
       ],
       [
        -3.2774,
        56.105
       ],
       [
        -3.2773,
        56.105
       ],
       [
        -3.2773,
        56.105
       ],
       [
        -3.2773,
        56.105
       ],
       [
        -3.2772,
        56.105
       ],
       [
        -3.2772,
        56.1049
       ],
       [
        -3.2772,
        56.1049
       ],
       [
        -3.2772,
        56.1049
       ],
       [
        -3.2771,
        56.1049
       ],
       [
        -3.2771,
        56.1049
       ],
       [
        -3.2771,
        56.1048
       ],
       [
        -3.277,
        56.1047
       ],
       [
        -3.2769,
        56.1046
       ],
       [
        -3.2768,
        56.1045
       ],
       [
        -3.2768,
        56.1045
       ],
       [
        -3.2767,
        56.1044
       ],
       [
        -3.2766,
        56.1044
       ],
       [
        -3.2765,
        56.1043
       ],
       [
        -3.2764,
        56.1043
       ],
       [
        -3.2763,
        56.1042
       ],
       [
        -3.2762,
        56.1042
       ],
       [
        -3.2758,
        56.1041
       ],
       [
        -3.2757,
        56.104
       ],
       [
        -3.2755,
        56.1039
       ],
       [
        -3.2753,
        56.1039
       ],
       [
        -3.2752,
        56.1038
       ],
       [
        -3.2752,
        56.1038
       ],
       [
        -3.2752,
        56.1038
       ],
       [
        -3.2752,
        56.1038
       ],
       [
        -3.2751,
        56.1038
       ],
       [
        -3.2751,
        56.1038
       ],
       [
        -3.2751,
        56.1038
       ],
       [
        -3.2751,
        56.1038
       ],
       [
        -3.2751,
        56.1038
       ],
       [
        -3.2751,
        56.1038
       ],
       [
        -3.2751,
        56.1037
       ],
       [
        -3.2751,
        56.1037
       ],
       [
        -3.275,
        56.1037
       ],
       [
        -3.275,
        56.1037
       ],
       [
        -3.275,
        56.1037
       ],
       [
        -3.275,
        56.1037
       ],
       [
        -3.275,
        56.1037
       ],
       [
        -3.2749,
        56.1037
       ],
       [
        -3.2749,
        56.1036
       ],
       [
        -3.2748,
        56.1036
       ],
       [
        -3.2748,
        56.1036
       ],
       [
        -3.2747,
        56.1035
       ],
       [
        -3.2746,
        56.1035
       ],
       [
        -3.2746,
        56.1035
       ],
       [
        -3.2744,
        56.1034
       ],
       [
        -3.2744,
        56.1034
       ],
       [
        -3.2744,
        56.1034
       ],
       [
        -3.2743,
        56.1034
       ],
       [
        -3.2743,
        56.1034
       ],
       [
        -3.2742,
        56.1034
       ],
       [
        -3.2741,
        56.1034
       ],
       [
        -3.274,
        56.1034
       ],
       [
        -3.2739,
        56.1034
       ],
       [
        -3.2738,
        56.1034
       ],
       [
        -3.2738,
        56.1034
       ],
       [
        -3.2737,
        56.1035
       ],
       [
        -3.2735,
        56.1036
       ],
       [
        -3.2735,
        56.1036
       ],
       [
        -3.2735,
        56.1036
       ],
       [
        -3.2731,
        56.1032
       ],
       [
        -3.2731,
        56.1032
       ],
       [
        -3.2729,
        56.103
       ],
       [
        -3.2729,
        56.103
       ],
       [
        -3.2726,
        56.1026
       ],
       [
        -3.2725,
        56.1025
       ],
       [
        -3.2724,
        56.1024
       ],
       [
        -3.2724,
        56.1023
       ],
       [
        -3.2721,
        56.102
       ],
       [
        -3.2719,
        56.1018
       ],
       [
        -3.2717,
        56.1015
       ],
       [
        -3.2716,
        56.1014
       ],
       [
        -3.2716,
        56.1014
       ],
       [
        -3.2715,
        56.1013
       ],
       [
        -3.2714,
        56.1011
       ],
       [
        -3.2713,
        56.1011
       ],
       [
        -3.2713,
        56.101
       ],
       [
        -3.2712,
        56.101
       ],
       [
        -3.2712,
        56.101
       ],
       [
        -3.2712,
        56.101
       ],
       [
        -3.2709,
        56.1011
       ],
       [
        -3.2708,
        56.1011
       ],
       [
        -3.2707,
        56.1012
       ],
       [
        -3.2706,
        56.1012
       ],
       [
        -3.2705,
        56.1012
       ],
       [
        -3.2704,
        56.1013
       ],
       [
        -3.2703,
        56.1013
       ],
       [
        -3.2702,
        56.1014
       ],
       [
        -3.27,
        56.1015
       ],
       [
        -3.2698,
        56.1016
       ],
       [
        -3.2697,
        56.1016
       ],
       [
        -3.2696,
        56.1016
       ],
       [
        -3.2695,
        56.1017
       ],
       [
        -3.2693,
        56.1017
       ],
       [
        -3.269,
        56.1018
       ],
       [
        -3.2687,
        56.1018
       ],
       [
        -3.2684,
        56.1019
       ],
       [
        -3.2681,
        56.1019
       ],
       [
        -3.2678,
        56.102
       ],
       [
        -3.2671,
        56.1021
       ],
       [
        -3.2671,
        56.1021
       ],
       [
        -3.2668,
        56.1021
       ],
       [
        -3.2664,
        56.1022
       ],
       [
        -3.2661,
        56.1022
       ],
       [
        -3.266,
        56.1023
       ],
       [
        -3.2658,
        56.1023
       ],
       [
        -3.2657,
        56.1023
       ],
       [
        -3.2655,
        56.1023
       ],
       [
        -3.2654,
        56.1023
       ],
       [
        -3.2652,
        56.1023
       ],
       [
        -3.2651,
        56.1023
       ],
       [
        -3.265,
        56.1023
       ],
       [
        -3.2648,
        56.1023
       ],
       [
        -3.2645,
        56.1023
       ],
       [
        -3.2643,
        56.1023
       ],
       [
        -3.2642,
        56.1023
       ],
       [
        -3.2642,
        56.1023
       ],
       [
        -3.2641,
        56.1023
       ],
       [
        -3.2641,
        56.1023
       ],
       [
        -3.264,
        56.1023
       ],
       [
        -3.2639,
        56.1023
       ],
       [
        -3.2639,
        56.1023
       ],
       [
        -3.2638,
        56.1023
       ],
       [
        -3.2637,
        56.1023
       ],
       [
        -3.2636,
        56.1024
       ],
       [
        -3.2635,
        56.1024
       ],
       [
        -3.2635,
        56.1024
       ],
       [
        -3.2634,
        56.1024
       ],
       [
        -3.2634,
        56.1024
       ],
       [
        -3.2633,
        56.1025
       ],
       [
        -3.2632,
        56.1025
       ],
       [
        -3.263,
        56.1025
       ],
       [
        -3.2628,
        56.1026
       ],
       [
        -3.2626,
        56.1027
       ],
       [
        -3.2625,
        56.1027
       ],
       [
        -3.2625,
        56.1028
       ],
       [
        -3.2626,
        56.103
       ],
       [
        -3.2626,
        56.103
       ],
       [
        -3.2627,
        56.1032
       ],
       [
        -3.2627,
        56.1032
       ],
       [
        -3.2628,
        56.1033
       ],
       [
        -3.2629,
        56.1034
       ],
       [
        -3.2629,
        56.1035
       ],
       [
        -3.2635,
        56.1032
       ],
       [
        -3.2642,
        56.1038
       ],
       [
        -3.2645,
        56.1044
       ],
       [
        -3.2645,
        56.1044
       ],
       [
        -3.2645,
        56.1044
       ],
       [
        -3.2645,
        56.1044
       ],
       [
        -3.2645,
        56.1044
       ],
       [
        -3.2645,
        56.1044
       ],
       [
        -3.2645,
        56.1044
       ],
       [
        -3.2645,
        56.1044
       ],
       [
        -3.2645,
        56.1044
       ],
       [
        -3.2645,
        56.1044
       ],
       [
        -3.2645,
        56.1044
       ],
       [
        -3.2645,
        56.1045
       ],
       [
        -3.2645,
        56.1045
       ],
       [
        -3.2645,
        56.1045
       ],
       [
        -3.2645,
        56.1045
       ],
       [
        -3.2645,
        56.1045
       ],
       [
        -3.2645,
        56.1045
       ],
       [
        -3.2645,
        56.1045
       ],
       [
        -3.2645,
        56.1045
       ],
       [
        -3.2645,
        56.1045
       ],
       [
        -3.2645,
        56.1045
       ],
       [
        -3.2645,
        56.1045
       ],
       [
        -3.2645,
        56.1045
       ],
       [
        -3.2645,
        56.1045
       ],
       [
        -3.2645,
        56.1045
       ],
       [
        -3.2645,
        56.1045
       ],
       [
        -3.2645,
        56.1045
       ],
       [
        -3.2645,
        56.1045
       ],
       [
        -3.2645,
        56.1045
       ],
       [
        -3.2645,
        56.1045
       ],
       [
        -3.2644,
        56.1046
       ],
       [
        -3.2644,
        56.1046
       ],
       [
        -3.2644,
        56.1046
       ],
       [
        -3.2644,
        56.1046
       ],
       [
        -3.2644,
        56.1046
       ],
       [
        -3.2643,
        56.1046
       ],
       [
        -3.2642,
        56.1046
       ],
       [
        -3.2642,
        56.1047
       ],
       [
        -3.264,
        56.1047
       ],
       [
        -3.2639,
        56.1047
       ],
       [
        -3.2638,
        56.1048
       ],
       [
        -3.2637,
        56.1048
       ],
       [
        -3.2636,
        56.1048
       ],
       [
        -3.2635,
        56.1049
       ],
       [
        -3.2635,
        56.1049
       ],
       [
        -3.2635,
        56.1049
       ],
       [
        -3.2634,
        56.1049
       ],
       [
        -3.2633,
        56.1049
       ],
       [
        -3.2633,
        56.105
       ],
       [
        -3.2632,
        56.105
       ],
       [
        -3.2632,
        56.105
       ],
       [
        -3.2631,
        56.105
       ],
       [
        -3.2631,
        56.105
       ],
       [
        -3.2631,
        56.105
       ],
       [
        -3.2631,
        56.105
       ],
       [
        -3.2631,
        56.105
       ],
       [
        -3.263,
        56.105
       ],
       [
        -3.263,
        56.105
       ],
       [
        -3.263,
        56.105
       ],
       [
        -3.263,
        56.105
       ],
       [
        -3.263,
        56.105
       ],
       [
        -3.263,
        56.105
       ],
       [
        -3.263,
        56.105
       ],
       [
        -3.263,
        56.105
       ],
       [
        -3.263,
        56.105
       ],
       [
        -3.2629,
        56.105
       ],
       [
        -3.2629,
        56.105
       ],
       [
        -3.2629,
        56.105
       ],
       [
        -3.2628,
        56.105
       ],
       [
        -3.2628,
        56.1049
       ],
       [
        -3.2627,
        56.1049
       ],
       [
        -3.2627,
        56.1049
       ],
       [
        -3.2626,
        56.1048
       ],
       [
        -3.2626,
        56.1048
       ],
       [
        -3.2625,
        56.1047
       ],
       [
        -3.2624,
        56.1047
       ],
       [
        -3.2624,
        56.1048
       ],
       [
        -3.2624,
        56.1048
       ],
       [
        -3.2623,
        56.1049
       ],
       [
        -3.2623,
        56.1049
       ],
       [
        -3.2623,
        56.1049
       ],
       [
        -3.2623,
        56.1049
       ],
       [
        -3.2622,
        56.1049
       ],
       [
        -3.2622,
        56.1049
       ],
       [
        -3.2622,
        56.105
       ],
       [
        -3.2622,
        56.105
       ],
       [
        -3.2621,
        56.1051
       ],
       [
        -3.2621,
        56.1051
       ],
       [
        -3.2621,
        56.1052
       ],
       [
        -3.2621,
        56.1052
       ],
       [
        -3.2621,
        56.1052
       ],
       [
        -3.262,
        56.1053
       ],
       [
        -3.262,
        56.1053
       ],
       [
        -3.262,
        56.1054
       ],
       [
        -3.262,
        56.1055
       ],
       [
        -3.262,
        56.1055
       ],
       [
        -3.262,
        56.1056
       ],
       [
        -3.262,
        56.1057
       ],
       [
        -3.262,
        56.1059
       ],
       [
        -3.262,
        56.106
       ],
       [
        -3.262,
        56.1062
       ],
       [
        -3.2621,
        56.1065
       ],
       [
        -3.2621,
        56.1065
       ],
       [
        -3.2621,
        56.1066
       ],
       [
        -3.2621,
        56.1067
       ],
       [
        -3.2621,
        56.1069
       ],
       [
        -3.2621,
        56.107
       ],
       [
        -3.2621,
        56.1071
       ],
       [
        -3.2621,
        56.1071
       ],
       [
        -3.262,
        56.1071
       ],
       [
        -3.262,
        56.1071
       ],
       [
        -3.2618,
        56.1073
       ],
       [
        -3.2618,
        56.1073
       ],
       [
        -3.2615,
        56.1075
       ],
       [
        -3.2614,
        56.1076
       ],
       [
        -3.2614,
        56.1076
       ],
       [
        -3.2613,
        56.1077
       ],
       [
        -3.2612,
        56.1077
       ],
       [
        -3.2612,
        56.1077
       ],
       [
        -3.2611,
        56.1078
       ],
       [
        -3.2611,
        56.1078
       ],
       [
        -3.2611,
        56.1079
       ],
       [
        -3.2611,
        56.1079
       ],
       [
        -3.2611,
        56.1079
       ],
       [
        -3.2611,
        56.1079
       ],
       [
        -3.2611,
        56.108
       ],
       [
        -3.2612,
        56.108
       ],
       [
        -3.2612,
        56.108
       ],
       [
        -3.2613,
        56.108
       ],
       [
        -3.2614,
        56.1081
       ],
       [
        -3.2616,
        56.1081
       ],
       [
        -3.2618,
        56.1082
       ],
       [
        -3.2621,
        56.1082
       ],
       [
        -3.2622,
        56.1083
       ],
       [
        -3.2625,
        56.1083
       ],
       [
        -3.2628,
        56.1084
       ],
       [
        -3.2628,
        56.1084
       ],
       [
        -3.2629,
        56.1084
       ],
       [
        -3.263,
        56.1084
       ],
       [
        -3.2632,
        56.1084
       ],
       [
        -3.2634,
        56.1085
       ],
       [
        -3.2637,
        56.1085
       ],
       [
        -3.264,
        56.1085
       ],
       [
        -3.2641,
        56.1085
       ],
       [
        -3.2642,
        56.1085
       ],
       [
        -3.2643,
        56.1085
       ],
       [
        -3.2643,
        56.1085
       ],
       [
        -3.2644,
        56.1085
       ],
       [
        -3.2644,
        56.1085
       ],
       [
        -3.2644,
        56.1085
       ],
       [
        -3.2645,
        56.1085
       ],
       [
        -3.2645,
        56.1086
       ],
       [
        -3.2645,
        56.1086
       ],
       [
        -3.2646,
        56.1087
       ],
       [
        -3.2646,
        56.1089
       ],
       [
        -3.2646,
        56.1089
       ],
       [
        -3.2646,
        56.1089
       ],
       [
        -3.2646,
        56.109
       ],
       [
        -3.2646,
        56.1091
       ],
       [
        -3.2646,
        56.1092
       ],
       [
        -3.2646,
        56.1094
       ],
       [
        -3.2646,
        56.1096
       ],
       [
        -3.2646,
        56.1097
       ],
       [
        -3.2646,
        56.1097
       ],
       [
        -3.2646,
        56.1097
       ],
       [
        -3.2646,
        56.1097
       ],
       [
        -3.2646,
        56.1098
       ],
       [
        -3.2646,
        56.1098
       ],
       [
        -3.2647,
        56.1098
       ],
       [
        -3.2647,
        56.1098
       ],
       [
        -3.2647,
        56.1098
       ],
       [
        -3.2648,
        56.1098
       ],
       [
        -3.2648,
        56.1098
       ],
       [
        -3.2649,
        56.1098
       ],
       [
        -3.265,
        56.1098
       ],
       [
        -3.2651,
        56.1098
       ],
       [
        -3.2652,
        56.1098
       ],
       [
        -3.2655,
        56.1098
       ],
       [
        -3.2658,
        56.1098
       ],
       [
        -3.2659,
        56.1098
       ],
       [
        -3.266,
        56.1098
       ],
       [
        -3.2661,
        56.1098
       ],
       [
        -3.2661,
        56.1098
       ],
       [
        -3.2662,
        56.1098
       ],
       [
        -3.2664,
        56.1098
       ],
       [
        -3.2666,
        56.1099
       ],
       [
        -3.2666,
        56.1099
       ],
       [
        -3.2667,
        56.1099
       ],
       [
        -3.2667,
        56.1099
       ],
       [
        -3.2669,
        56.1099
       ],
       [
        -3.267,
        56.1099
       ],
       [
        -3.2672,
        56.1099
       ],
       [
        -3.2675,
        56.1099
       ],
       [
        -3.2676,
        56.1099
       ],
       [
        -3.2678,
        56.1099
       ]
      ]
     ]
    ]
   },
   "properties": {
    "slug": "cato-auchtertool",
    "reference": "25/03079/SCR",
    "local_auth": "Fife",
    "application_type": "eia_screening",
    "is_primary": false,
    "official_area_m2": 713391,
    "source": "spatialhub_planning_applications_official",
    "source_id": "src-spatialhub-planning-applications",
    "licence": "OGL v3",
    "retrieved_date": "2026-07-30"
   }
  }
 ]
}
