{
 "type": "FeatureCollection",
 "features": [
  {
   "type": "Feature",
   "geometry": {
    "type": "MultiPolygon",
    "coordinates": [
     [
      [
       [
        -3.9597,
        55.8803
       ],
       [
        -3.9598,
        55.8805
       ],
       [
        -3.9596,
        55.8807
       ],
       [
        -3.9592,
        55.881
       ],
       [
        -3.9586,
        55.8812
       ],
       [
        -3.9572,
        55.8817
       ],
       [
        -3.9571,
        55.8818
       ],
       [
        -3.9558,
        55.8824
       ],
       [
        -3.9549,
        55.8828
       ],
       [
        -3.9521,
        55.8832
       ],
       [
        -3.9517,
        55.8822
       ],
       [
        -3.9491,
        55.8823
       ],
       [
        -3.9487,
        55.8823
       ],
       [
        -3.9476,
        55.8817
       ],
       [
        -3.9461,
        55.8819
       ],
       [
        -3.9448,
        55.882
       ],
       [
        -3.9441,
        55.8821
       ],
       [
        -3.94,
        55.8834
       ],
       [
        -3.9407,
        55.8845
       ],
       [
        -3.9409,
        55.885
       ],
       [
        -3.9392,
        55.886
       ],
       [
        -3.9348,
        55.8867
       ],
       [
        -3.9307,
        55.888
       ],
       [
        -3.9313,
        55.889
       ],
       [
        -3.9321,
        55.8911
       ],
       [
        -3.929,
        55.8919
       ],
       [
        -3.9275,
        55.8919
       ],
       [
        -3.9267,
        55.892
       ],
       [
        -3.9255,
        55.8922
       ],
       [
        -3.9236,
        55.8924
       ],
       [
        -3.923,
        55.8938
       ],
       [
        -3.9273,
        55.8975
       ],
       [
        -3.9283,
        55.8976
       ],
       [
        -3.9335,
        55.8969
       ],
       [
        -3.9341,
        55.8971
       ],
       [
        -3.9363,
        55.8965
       ],
       [
        -3.9356,
        55.8955
       ],
       [
        -3.9386,
        55.8946
       ],
       [
        -3.9408,
        55.8932
       ],
       [
        -3.9494,
        55.8926
       ],
       [
        -3.9545,
        55.8909
       ],
       [
        -3.9569,
        55.891
       ],
       [
        -3.959,
        55.8909
       ],
       [
        -3.9601,
        55.8909
       ],
       [
        -3.961,
        55.8908
       ],
       [
        -3.9615,
        55.8904
       ],
       [
        -3.9619,
        55.8901
       ],
       [
        -3.9622,
        55.8897
       ],
       [
        -3.9622,
        55.8895
       ],
       [
        -3.9621,
        55.8892
       ],
       [
        -3.9621,
        55.889
       ],
       [
        -3.9621,
        55.8886
       ],
       [
        -3.9616,
        55.8881
       ],
       [
        -3.9597,
        55.8867
       ],
       [
        -3.9593,
        55.8866
       ],
       [
        -3.9583,
        55.886
       ],
       [
        -3.9577,
        55.8854
       ],
       [
        -3.9573,
        55.8849
       ],
       [
        -3.9578,
        55.8844
       ],
       [
        -3.958,
        55.8842
       ],
       [
        -3.9583,
        55.8841
       ],
       [
        -3.9588,
        55.8839
       ],
       [
        -3.9593,
        55.8839
       ],
       [
        -3.9602,
        55.8837
       ],
       [
        -3.9605,
        55.8836
       ],
       [
        -3.9607,
        55.8837
       ],
       [
        -3.9611,
        55.8836
       ],
       [
        -3.9614,
        55.8833
       ],
       [
        -3.962,
        55.8831
       ],
       [
        -3.9622,
        55.8828
       ],
       [
        -3.9622,
        55.8827
       ],
       [
        -3.9623,
        55.8826
       ],
       [
        -3.9625,
        55.8825
       ],
       [
        -3.9628,
        55.8824
       ],
       [
        -3.9631,
        55.8824
       ],
       [
        -3.9633,
        55.8823
       ],
       [
        -3.9634,
        55.8822
       ],
       [
        -3.9636,
        55.8819
       ],
       [
        -3.9636,
        55.8819
       ],
       [
        -3.9639,
        55.8819
       ],
       [
        -3.9639,
        55.8819
       ],
       [
        -3.9639,
        55.8818
       ],
       [
        -3.9639,
        55.8818
       ],
       [
        -3.9639,
        55.8818
       ],
       [
        -3.964,
        55.8816
       ],
       [
        -3.9642,
        55.8816
       ],
       [
        -3.9646,
        55.8813
       ],
       [
        -3.9646,
        55.8812
       ],
       [
        -3.9654,
        55.8802
       ],
       [
        -3.9656,
        55.8802
       ],
       [
        -3.9659,
        55.8798
       ],
       [
        -3.966,
        55.8794
       ],
       [
        -3.9661,
        55.8793
       ],
       [
        -3.9663,
        55.8791
       ],
       [
        -3.9667,
        55.8787
       ],
       [
        -3.9669,
        55.8788
       ],
       [
        -3.9674,
        55.8785
       ],
       [
        -3.9679,
        55.8784
       ],
       [
        -3.9684,
        55.8783
       ],
       [
        -3.9674,
        55.8778
       ],
       [
        -3.9672,
        55.8779
       ],
       [
        -3.9671,
        55.8778
       ],
       [
        -3.9665,
        55.8782
       ],
       [
        -3.966,
        55.8788
       ],
       [
        -3.9656,
        55.8788
       ],
       [
        -3.9655,
        55.8793
       ],
       [
        -3.9651,
        55.8797
       ],
       [
        -3.9653,
        55.8793
       ],
       [
        -3.964,
        55.8788
       ],
       [
        -3.9613,
        55.8786
       ],
       [
        -3.9599,
        55.8786
       ],
       [
        -3.958,
        55.8787
       ],
       [
        -3.9571,
        55.8788
       ],
       [
        -3.957,
        55.8788
       ],
       [
        -3.9566,
        55.8793
       ],
       [
        -3.9557,
        55.88
       ],
       [
        -3.9568,
        55.8805
       ],
       [
        -3.957,
        55.8803
       ],
       [
        -3.9572,
        55.8803
       ],
       [
        -3.9574,
        55.8802
       ],
       [
        -3.958,
        55.8803
       ],
       [
        -3.9579,
        55.8805
       ],
       [
        -3.958,
        55.8805
       ],
       [
        -3.9584,
        55.8805
       ],
       [
        -3.9585,
        55.8805
       ],
       [
        -3.9589,
        55.8806
       ],
       [
        -3.9592,
        55.8806
       ],
       [
        -3.9593,
        55.8806
       ],
       [
        -3.9594,
        55.8805
       ],
       [
        -3.9595,
        55.8804
       ],
       [
        -3.9596,
        55.8803
       ],
       [
        -3.9597,
        55.8803
       ],
       [
        -3.9597,
        55.8803
       ]
      ]
     ]
    ]
   },
   "properties": {
    "slug": "drumshangie",
    "reference": "24/01025/PAN",
    "local_auth": "North Lanarkshire",
    "application_type": "pan",
    "is_primary": true,
    "official_area_m2": 2358071,
    "source": "spatialhub_planning_applications_official",
    "source_id": "src-spatialhub-planning-applications",
    "licence": "OGL v3",
    "retrieved_date": "2026-07-30"
   }
  },
  {
   "type": "Feature",
   "geometry": {
    "type": "MultiPolygon",
    "coordinates": [
     [
      [
       [
        -3.9495,
        55.874
       ],
       [
        -3.9475,
        55.8743
       ],
       [
        -3.946,
        55.8749
       ],
       [
        -3.9453,
        55.8751
       ],
       [
        -3.9444,
        55.8755
       ],
       [
        -3.944,
        55.8757
       ],
       [
        -3.9424,
        55.8762
       ],
       [
        -3.9404,
        55.8766
       ],
       [
        -3.9401,
        55.8767
       ],
       [
        -3.9374,
        55.8779
       ],
       [
        -3.9384,
        55.8782
       ],
       [
        -3.9399,
        55.8787
       ],
       [
        -3.9403,
        55.8789
       ],
       [
        -3.941,
        55.8794
       ],
       [
        -3.9419,
        55.8798
       ],
       [
        -3.9422,
        55.8801
       ],
       [
        -3.9445,
        55.8821
       ],
       [
        -3.94,
        55.8835
       ],
       [
        -3.9409,
        55.885
       ],
       [
        -3.9403,
        55.8852
       ],
       [
        -3.9396,
        55.8856
       ],
       [
        -3.9398,
        55.8859
       ],
       [
        -3.9349,
        55.8867
       ],
       [
        -3.9307,
        55.888
       ],
       [
        -3.9321,
        55.891
       ],
       [
        -3.9283,
        55.892
       ],
       [
        -3.9262,
        55.8921
       ],
       [
        -3.9235,
        55.8923
       ],
       [
        -3.9242,
        55.8932
       ],
       [
        -3.9248,
        55.8946
       ],
       [
        -3.9205,
        55.8954
       ],
       [
        -3.9185,
        55.8952
       ],
       [
        -3.9166,
        55.8955
       ],
       [
        -3.9137,
        55.8956
       ],
       [
        -3.9114,
        55.8977
       ],
       [
        -3.916,
        55.9012
       ],
       [
        -3.916,
        55.9015
       ],
       [
        -3.919,
        55.9033
       ],
       [
        -3.921,
        55.9032
       ],
       [
        -3.9254,
        55.9029
       ],
       [
        -3.9264,
        55.9029
       ],
       [
        -3.9271,
        55.9032
       ],
       [
        -3.9277,
        55.9035
       ],
       [
        -3.9289,
        55.9037
       ],
       [
        -3.9329,
        55.9022
       ],
       [
        -3.9306,
        55.8999
       ],
       [
        -3.9348,
        55.8986
       ],
       [
        -3.9359,
        55.8981
       ],
       [
        -3.937,
        55.8971
       ],
       [
        -3.9391,
        55.8947
       ],
       [
        -3.9515,
        55.894
       ],
       [
        -3.9496,
        55.891
       ],
       [
        -3.951,
        55.8904
       ],
       [
        -3.9535,
        55.8899
       ],
       [
        -3.9546,
        55.8895
       ],
       [
        -3.9556,
        55.8893
       ],
       [
        -3.9555,
        55.889
       ],
       [
        -3.9554,
        55.8888
       ],
       [
        -3.9568,
        55.8877
       ],
       [
        -3.9574,
        55.8873
       ],
       [
        -3.9591,
        55.8865
       ],
       [
        -3.9572,
        55.8849
       ],
       [
        -3.9574,
        55.8846
       ],
       [
        -3.9583,
        55.8841
       ],
       [
        -3.9586,
        55.884
       ],
       [
        -3.9591,
        55.8839
       ],
       [
        -3.9602,
        55.8837
       ],
       [
        -3.9605,
        55.8836
       ],
       [
        -3.9609,
        55.8837
       ],
       [
        -3.9612,
        55.8836
       ],
       [
        -3.9614,
        55.8834
       ],
       [
        -3.9618,
        55.8832
       ],
       [
        -3.9621,
        55.8831
       ],
       [
        -3.9623,
        55.8826
       ],
       [
        -3.9625,
        55.8825
       ],
       [
        -3.963,
        55.8824
       ],
       [
        -3.9632,
        55.8823
       ],
       [
        -3.9636,
        55.882
       ],
       [
        -3.9639,
        55.8819
       ],
       [
        -3.9639,
        55.8818
       ],
       [
        -3.964,
        55.8816
       ],
       [
        -3.9642,
        55.8816
       ],
       [
        -3.9645,
        55.8813
       ],
       [
        -3.9646,
        55.8812
       ],
       [
        -3.9651,
        55.8806
       ],
       [
        -3.9654,
        55.8802
       ],
       [
        -3.9656,
        55.8802
       ],
       [
        -3.9657,
        55.88
       ],
       [
        -3.9659,
        55.8798
       ],
       [
        -3.966,
        55.8794
       ],
       [
        -3.9688,
        55.8787
       ],
       [
        -3.9677,
        55.8779
       ],
       [
        -3.9669,
        55.8778
       ],
       [
        -3.9657,
        55.8789
       ],
       [
        -3.9615,
        55.8787
       ],
       [
        -3.9609,
        55.8786
       ],
       [
        -3.9595,
        55.8786
       ],
       [
        -3.9569,
        55.8788
       ],
       [
        -3.9558,
        55.8801
       ],
       [
        -3.9567,
        55.8805
       ],
       [
        -3.9571,
        55.8802
       ],
       [
        -3.9578,
        55.8803
       ],
       [
        -3.9578,
        55.8805
       ],
       [
        -3.9585,
        55.8806
       ],
       [
        -3.959,
        55.8806
       ],
       [
        -3.9597,
        55.8803
       ],
       [
        -3.9598,
        55.8806
       ],
       [
        -3.9592,
        55.8811
       ],
       [
        -3.9574,
        55.8818
       ],
       [
        -3.9557,
        55.8826
       ],
       [
        -3.9549,
        55.8829
       ],
       [
        -3.9519,
        55.8834
       ],
       [
        -3.952,
        55.8833
       ],
       [
        -3.9515,
        55.8823
       ],
       [
        -3.949,
        55.8824
       ],
       [
        -3.9487,
        55.8824
       ],
       [
        -3.9486,
        55.8823
       ],
       [
        -3.9476,
        55.8818
       ],
       [
        -3.9474,
        55.8818
       ],
       [
        -3.9474,
        55.8818
       ],
       [
        -3.9465,
        55.8819
       ],
       [
        -3.9458,
        55.882
       ],
       [
        -3.9446,
        55.8822
       ],
       [
        -3.9449,
        55.8795
       ],
       [
        -3.9452,
        55.8794
       ],
       [
        -3.9464,
        55.879
       ],
       [
        -3.9465,
        55.8791
       ],
       [
        -3.9471,
        55.8791
       ],
       [
        -3.9496,
        55.8784
       ],
       [
        -3.9504,
        55.8779
       ],
       [
        -3.9516,
        55.8775
       ],
       [
        -3.9518,
        55.8743
       ],
       [
        -3.9515,
        55.8742
       ],
       [
        -3.9498,
        55.8741
       ],
       [
        -3.9495,
        55.874
       ]
      ]
     ]
    ]
   },
   "properties": {
    "slug": "drumshangie",
    "reference": "26/00069/PAN",
    "local_auth": "North Lanarkshire",
    "application_type": "pan",
    "is_primary": false,
    "official_area_m2": 3562105,
    "source": "spatialhub_planning_applications_official",
    "source_id": "src-spatialhub-planning-applications",
    "licence": "OGL v3",
    "retrieved_date": "2026-07-30"
   }
  }
 ]
}
