{
 "type": "FeatureCollection",
 "features": [
  {
   "type": "Feature",
   "geometry": {
    "type": "MultiPolygon",
    "coordinates": [
     [
      [
       [
        -4.1854,
        55.9199
       ],
       [
        -4.1899,
        55.9238
       ],
       [
        -4.1901,
        55.9238
       ],
       [
        -4.1907,
        55.9237
       ],
       [
        -4.1906,
        55.9236
       ],
       [
        -4.1914,
        55.9234
       ],
       [
        -4.1912,
        55.9233
       ],
       [
        -4.1912,
        55.9232
       ],
       [
        -4.1921,
        55.9231
       ],
       [
        -4.1929,
        55.9228
       ],
       [
        -4.1933,
        55.9225
       ],
       [
        -4.1935,
        55.9224
       ],
       [
        -4.1931,
        55.9219
       ],
       [
        -4.1928,
        55.9218
       ],
       [
        -4.1927,
        55.9218
       ],
       [
        -4.1926,
        55.9218
       ],
       [
        -4.1924,
        55.9215
       ],
       [
        -4.1926,
        55.9215
       ],
       [
        -4.1928,
        55.9214
       ],
       [
        -4.1928,
        55.9205
       ],
       [
        -4.1931,
        55.9196
       ],
       [
        -4.1928,
        55.9196
       ],
       [
        -4.1927,
        55.9195
       ],
       [
        -4.1927,
        55.9195
       ],
       [
        -4.1927,
        55.9194
       ],
       [
        -4.1927,
        55.9193
       ],
       [
        -4.1928,
        55.9192
       ],
       [
        -4.193,
        55.9191
       ],
       [
        -4.1932,
        55.9191
       ],
       [
        -4.1934,
        55.9188
       ],
       [
        -4.192,
        55.9188
       ],
       [
        -4.1908,
        55.9178
       ],
       [
        -4.1914,
        55.9151
       ],
       [
        -4.1938,
        55.9148
       ],
       [
        -4.1936,
        55.9142
       ],
       [
        -4.192,
        55.9146
       ],
       [
        -4.1914,
        55.9147
       ],
       [
        -4.186,
        55.9158
       ],
       [
        -4.1859,
        55.9161
       ],
       [
        -4.1851,
        55.9168
       ],
       [
        -4.1853,
        55.9171
       ],
       [
        -4.1856,
        55.9182
       ],
       [
        -4.1854,
        55.9182
       ],
       [
        -4.1853,
        55.9183
       ],
       [
        -4.1854,
        55.9184
       ],
       [
        -4.1854,
        55.9185
       ],
       [
        -4.1855,
        55.9185
       ],
       [
        -4.1857,
        55.9185
       ],
       [
        -4.1854,
        55.9199
       ]
      ]
     ]
    ]
   },
   "properties": {
    "slug": "westerhill",
    "reference": "TP/ED/25/0428",
    "local_auth": "East Dunbartonshire",
    "application_type": "pan",
    "is_primary": true,
    "official_area_m2": 333424,
    "source": "spatialhub_planning_applications_official",
    "source_id": "src-spatialhub-planning-applications",
    "licence": "OGL v3",
    "retrieved_date": "2026-07-30"
   }
  }
 ]
}
