{
 "type": "FeatureCollection",
 "features": [
  {
   "type": "Feature",
   "geometry": {
    "type": "MultiPolygon",
    "coordinates": [
     [
      [
       [
        -3.9124,
        55.8347
       ],
       [
        -3.9125,
        55.8348
       ],
       [
        -3.9123,
        55.8349
       ],
       [
        -3.9124,
        55.8352
       ],
       [
        -3.9131,
        55.835
       ],
       [
        -3.9131,
        55.8348
       ],
       [
        -3.9128,
        55.8348
       ],
       [
        -3.9126,
        55.8347
       ],
       [
        -3.9113,
        55.8336
       ],
       [
        -3.9098,
        55.8318
       ],
       [
        -3.9132,
        55.8308
       ],
       [
        -3.9174,
        55.8285
       ],
       [
        -3.9172,
        55.8281
       ],
       [
        -3.9185,
        55.827
       ],
       [
        -3.9189,
        55.8272
       ],
       [
        -3.9203,
        55.827
       ],
       [
        -3.9206,
        55.8273
       ],
       [
        -3.9214,
        55.8279
       ],
       [
        -3.9218,
        55.8278
       ],
       [
        -3.921,
        55.8273
       ],
       [
        -3.9194,
        55.8258
       ],
       [
        -3.9157,
        55.8221
       ],
       [
        -3.9155,
        55.8221
       ],
       [
        -3.9147,
        55.8221
       ],
       [
        -3.9121,
        55.8216
       ],
       [
        -3.9104,
        55.8212
       ],
       [
        -3.9104,
        55.8213
       ],
       [
        -3.9103,
        55.8215
       ],
       [
        -3.9099,
        55.8219
       ],
       [
        -3.9089,
        55.8226
       ],
       [
        -3.9071,
        55.823
       ],
       [
        -3.9068,
        55.8232
       ],
       [
        -3.9063,
        55.8236
       ],
       [
        -3.9058,
        55.8236
       ],
       [
        -3.9055,
        55.8239
       ],
       [
        -3.9052,
        55.8241
       ],
       [
        -3.9049,
        55.8244
       ],
       [
        -3.9046,
        55.8248
       ],
       [
        -3.9042,
        55.8251
       ],
       [
        -3.9038,
        55.8255
       ],
       [
        -3.902,
        55.8261
       ],
       [
        -3.9012,
        55.8271
       ],
       [
        -3.9,
        55.828
       ],
       [
        -3.8992,
        55.8313
       ],
       [
        -3.8993,
        55.8328
       ],
       [
        -3.9002,
        55.8357
       ],
       [
        -3.911,
        55.8335
       ],
       [
        -3.9112,
        55.8337
       ],
       [
        -3.9124,
        55.8347
       ]
      ]
     ]
    ]
   },
   "properties": {
    "slug": "datavita-dv6",
    "reference": "25/01328/PAN",
    "local_auth": "North Lanarkshire",
    "application_type": "pan",
    "is_primary": true,
    "official_area_m2": 1202074,
    "source": "spatialhub_planning_applications_official",
    "source_id": "src-spatialhub-planning-applications",
    "licence": "OGL v3",
    "retrieved_date": "2026-07-30"
   }
  }
 ]
}
