{
 "type": "FeatureCollection",
 "features": [
  {
   "type": "Feature",
   "geometry": {
    "type": "MultiPolygon",
    "coordinates": [
     [
      [
       [
        -3.3239,
        55.9185
       ],
       [
        -3.3242,
        55.9184
       ],
       [
        -3.3245,
        55.9184
       ],
       [
        -3.3249,
        55.9183
       ],
       [
        -3.3256,
        55.9184
       ],
       [
        -3.3309,
        55.9177
       ],
       [
        -3.3309,
        55.9177
       ],
       [
        -3.3319,
        55.9175
       ],
       [
        -3.3323,
        55.9174
       ],
       [
        -3.333,
        55.9175
       ],
       [
        -3.3339,
        55.9176
       ],
       [
        -3.3349,
        55.9175
       ],
       [
        -3.3363,
        55.9174
       ],
       [
        -3.3373,
        55.9172
       ],
       [
        -3.3378,
        55.9171
       ],
       [
        -3.3388,
        55.9168
       ],
       [
        -3.337,
        55.9145
       ],
       [
        -3.334,
        55.9148
       ],
       [
        -3.3292,
        55.9153
       ],
       [
        -3.3292,
        55.9152
       ],
       [
        -3.3292,
        55.9153
       ],
       [
        -3.3291,
        55.9153
       ],
       [
        -3.3291,
        55.9153
       ],
       [
        -3.3232,
        55.9168
       ],
       [
        -3.3238,
        55.9174
       ],
       [
        -3.3229,
        55.9176
       ],
       [
        -3.3239,
        55.9185
       ]
      ]
     ]
    ]
   },
   "properties": {
    "slug": "wester-hermiston",
    "reference": "25/03978/PAN",
    "local_auth": "City of Edinburgh",
    "application_type": "pan",
    "is_primary": true,
    "official_area_m2": 250146,
    "source": "spatialhub_planning_applications_official",
    "source_id": "src-spatialhub-planning-applications",
    "licence": "OGL v3",
    "retrieved_date": "2026-07-30"
   }
  },
  {
   "type": "Feature",
   "geometry": {
    "type": "MultiPolygon",
    "coordinates": [
     [
      [
       [
        -3.3239,
        55.9184
       ],
       [
        -3.3244,
        55.9183
       ],
       [
        -3.3255,
        55.9184
       ],
       [
        -3.3301,
        55.9178
       ],
       [
        -3.3309,
        55.9176
       ],
       [
        -3.332,
        55.9174
       ],
       [
        -3.3326,
        55.9174
       ],
       [
        -3.3341,
        55.9175
       ],
       [
        -3.3354,
        55.9174
       ],
       [
        -3.3366,
        55.9173
       ],
       [
        -3.3375,
        55.9171
       ],
       [
        -3.3382,
        55.9169
       ],
       [
        -3.339,
        55.9166
       ],
       [
        -3.3399,
        55.9166
       ],
       [
        -3.3407,
        55.9164
       ],
       [
        -3.3409,
        55.9163
       ],
       [
        -3.3419,
        55.9161
       ],
       [
        -3.3421,
        55.9159
       ],
       [
        -3.342,
        55.9155
       ],
       [
        -3.3421,
        55.9153
       ],
       [
        -3.3423,
        55.915
       ],
       [
        -3.3428,
        55.9148
       ],
       [
        -3.343,
        55.9145
       ],
       [
        -3.3416,
        55.9143
       ],
       [
        -3.3402,
        55.9143
       ],
       [
        -3.339,
        55.9143
       ],
       [
        -3.3322,
        55.915
       ],
       [
        -3.3293,
        55.9153
       ],
       [
        -3.3233,
        55.9169
       ],
       [
        -3.3237,
        55.9173
       ],
       [
        -3.3231,
        55.9175
       ],
       [
        -3.3239,
        55.9184
       ]
      ]
     ]
    ]
   },
   "properties": {
    "slug": "wester-hermiston",
    "reference": "25/02924/SCR",
    "local_auth": "City of Edinburgh",
    "application_type": "eia_screening",
    "is_primary": false,
    "official_area_m2": 306075,
    "source": "spatialhub_planning_applications_official",
    "source_id": "src-spatialhub-planning-applications",
    "licence": "OGL v3",
    "retrieved_date": "2026-07-30"
   }
  },
  {
   "type": "Feature",
   "geometry": {
    "type": "MultiPolygon",
    "coordinates": [
     [
      [
       [
        -3.3239,
        55.9184
       ],
       [
        -3.3244,
        55.9183
       ],
       [
        -3.3255,
        55.9184
       ],
       [
        -3.3301,
        55.9178
       ],
       [
        -3.3309,
        55.9176
       ],
       [
        -3.332,
        55.9174
       ],
       [
        -3.3326,
        55.9174
       ],
       [
        -3.3341,
        55.9175
       ],
       [
        -3.3354,
        55.9174
       ],
       [
        -3.3366,
        55.9173
       ],
       [
        -3.3375,
        55.9171
       ],
       [
        -3.3382,
        55.9169
       ],
       [
        -3.339,
        55.9166
       ],
       [
        -3.3399,
        55.9166
       ],
       [
        -3.3407,
        55.9164
       ],
       [
        -3.3409,
        55.9163
       ],
       [
        -3.3419,
        55.9161
       ],
       [
        -3.3421,
        55.9159
       ],
       [
        -3.342,
        55.9155
       ],
       [
        -3.3421,
        55.9153
       ],
       [
        -3.3423,
        55.915
       ],
       [
        -3.3428,
        55.9148
       ],
       [
        -3.343,
        55.9145
       ],
       [
        -3.3416,
        55.9143
       ],
       [
        -3.3402,
        55.9143
       ],
       [
        -3.339,
        55.9143
       ],
       [
        -3.3322,
        55.915
       ],
       [
        -3.3293,
        55.9153
       ],
       [
        -3.3233,
        55.9169
       ],
       [
        -3.3237,
        55.9173
       ],
       [
        -3.3231,
        55.9175
       ],
       [
        -3.3239,
        55.9184
       ]
      ]
     ]
    ]
   },
   "properties": {
    "slug": "wester-hermiston",
    "reference": "25/05576/SCR",
    "local_auth": "City of Edinburgh",
    "application_type": "eia_screening",
    "is_primary": false,
    "official_area_m2": 306075,
    "source": "spatialhub_planning_applications_official",
    "source_id": "src-spatialhub-planning-applications",
    "licence": "OGL v3",
    "retrieved_date": "2026-07-30"
   }
  }
 ]
}
