{
 "type": "FeatureCollection",
 "features": [
  {
   "type": "Feature",
   "geometry": {
    "type": "MultiPolygon",
    "coordinates": [
     [
      [
       [
        -5.0288,
        55.8802
       ],
       [
        -5.0292,
        55.8802
       ],
       [
        -5.0293,
        55.8805
       ],
       [
        -5.0294,
        55.8805
       ],
       [
        -5.0294,
        55.8802
       ],
       [
        -5.0307,
        55.8803
       ],
       [
        -5.0307,
        55.8799
       ],
       [
        -5.0292,
        55.8799
       ],
       [
        -5.0291,
        55.88
       ],
       [
        -5.0288,
        55.88
       ],
       [
        -5.0288,
        55.8802
       ]
      ]
     ]
    ]
   },
   "properties": {
    "slug": "killean",
    "reference": "20/00229/PP",
    "local_auth": "Argyll and Bute",
    "application_type": "full_application",
    "is_primary": true,
    "official_area_m2": 4452,
    "source": "spatialhub_planning_applications_official",
    "source_id": "src-spatialhub-planning-applications",
    "licence": "OGL v3",
    "retrieved_date": "2026-07-30"
   }
  },
  {
   "type": "Feature",
   "geometry": {
    "type": "MultiPolygon",
    "coordinates": [
     [
      [
       [
        -5.0292,
        55.8807
       ],
       [
        -5.0292,
        55.8807
       ],
       [
        -5.0292,
        55.8804
       ],
       [
        -5.0305,
        55.8805
       ],
       [
        -5.0306,
        55.88
       ],
       [
        -5.0292,
        55.88
       ],
       [
        -5.0292,
        55.8801
       ],
       [
        -5.0291,
        55.8801
       ],
       [
        -5.0288,
        55.8801
       ],
       [
        -5.0288,
        55.8804
       ],
       [
        -5.0292,
        55.8804
       ],
       [
        -5.0292,
        55.8807
       ]
      ]
     ]
    ]
   },
   "properties": {
    "slug": "killean",
    "reference": "25/00445/CLAWU",
    "local_auth": "Argyll and Bute",
    "application_type": "other",
    "is_primary": false,
    "official_area_m2": 5039,
    "source": "spatialhub_planning_applications_official",
    "source_id": "src-spatialhub-planning-applications",
    "licence": "OGL v3",
    "retrieved_date": "2026-07-30"
   }
  }
 ]
}
