{
 "type": "FeatureCollection",
 "features": [
  {
   "type": "Feature",
   "geometry": {
    "type": "MultiPolygon",
    "coordinates": [
     [
      [
       [
        -3.9359,
        55.8387
       ],
       [
        -3.9359,
        55.8387
       ],
       [
        -3.9358,
        55.8386
       ],
       [
        -3.9357,
        55.8386
       ],
       [
        -3.9356,
        55.8385
       ],
       [
        -3.9356,
        55.8383
       ],
       [
        -3.9357,
        55.8382
       ],
       [
        -3.9357,
        55.8382
       ],
       [
        -3.9359,
        55.8382
       ],
       [
        -3.9361,
        55.8381
       ],
       [
        -3.9365,
        55.8379
       ],
       [
        -3.9373,
        55.8374
       ],
       [
        -3.9379,
        55.837
       ],
       [
        -3.9384,
        55.8368
       ],
       [
        -3.9387,
        55.8366
       ],
       [
        -3.939,
        55.8365
       ],
       [
        -3.9392,
        55.8364
       ],
       [
        -3.9395,
        55.8362
       ],
       [
        -3.9399,
        55.8361
       ],
       [
        -3.9394,
        55.8353
       ],
       [
        -3.9385,
        55.8346
       ],
       [
        -3.9383,
        55.8347
       ],
       [
        -3.9382,
        55.8346
       ],
       [
        -3.9381,
        55.8346
       ],
       [
        -3.938,
        55.8345
       ],
       [
        -3.9377,
        55.834
       ],
       [
        -3.9376,
        55.8339
       ],
       [
        -3.9358,
        55.8344
       ],
       [
        -3.9346,
        55.8347
       ],
       [
        -3.934,
        55.8349
       ],
       [
        -3.9329,
        55.8353
       ],
       [
        -3.9321,
        55.8356
       ],
       [
        -3.9319,
        55.8356
       ],
       [
        -3.9319,
        55.8357
       ],
       [
        -3.9318,
        55.8357
       ],
       [
        -3.9318,
        55.8358
       ],
       [
        -3.9318,
        55.8359
       ],
       [
        -3.9318,
        55.836
       ],
       [
        -3.9318,
        55.8361
       ],
       [
        -3.9319,
        55.8363
       ],
       [
        -3.9321,
        55.8364
       ],
       [
        -3.9327,
        55.8368
       ],
       [
        -3.9338,
        55.8375
       ],
       [
        -3.9336,
        55.8376
       ],
       [
        -3.9342,
        55.838
       ],
       [
        -3.9357,
        55.8388
       ],
       [
        -3.9359,
        55.8387
       ]
      ]
     ]
    ]
   },
   "properties": {
    "slug": "datavita-dv4",
    "reference": "25/01322/PAN",
    "local_auth": "North Lanarkshire",
    "application_type": "pan",
    "is_primary": true,
    "official_area_m2": 143040,
    "source": "spatialhub_planning_applications_official",
    "source_id": "src-spatialhub-planning-applications",
    "licence": "OGL v3",
    "retrieved_date": "2026-07-30"
   }
  },
  {
   "type": "Feature",
   "geometry": {
    "type": "MultiPolygon",
    "coordinates": [
     [
      [
       [
        -3.9358,
        55.8387
       ],
       [
        -3.9357,
        55.8386
       ],
       [
        -3.9356,
        55.8384
       ],
       [
        -3.9356,
        55.8384
       ],
       [
        -3.9356,
        55.8383
       ],
       [
        -3.9357,
        55.8382
       ],
       [
        -3.9358,
        55.8382
       ],
       [
        -3.9359,
        55.8381
       ],
       [
        -3.9361,
        55.8381
       ],
       [
        -3.9363,
        55.838
       ],
       [
        -3.9365,
        55.8379
       ],
       [
        -3.9367,
        55.8378
       ],
       [
        -3.9371,
        55.8375
       ],
       [
        -3.9377,
        55.8372
       ],
       [
        -3.9382,
        55.8369
       ],
       [
        -3.9383,
        55.8368
       ],
       [
        -3.9386,
        55.8366
       ],
       [
        -3.9387,
        55.8366
       ],
       [
        -3.9389,
        55.8365
       ],
       [
        -3.9392,
        55.8364
       ],
       [
        -3.9394,
        55.8363
       ],
       [
        -3.9395,
        55.8362
       ],
       [
        -3.9398,
        55.8361
       ],
       [
        -3.9393,
        55.8353
       ],
       [
        -3.9386,
        55.8348
       ],
       [
        -3.9383,
        55.8347
       ],
       [
        -3.9382,
        55.8346
       ],
       [
        -3.9382,
        55.8346
       ],
       [
        -3.9382,
        55.8346
       ],
       [
        -3.9381,
        55.8346
       ],
       [
        -3.9379,
        55.8343
       ],
       [
        -3.9376,
        55.8339
       ],
       [
        -3.9365,
        55.8342
       ],
       [
        -3.9357,
        55.8344
       ],
       [
        -3.9347,
        55.8347
       ],
       [
        -3.9342,
        55.8348
       ],
       [
        -3.9336,
        55.835
       ],
       [
        -3.9326,
        55.8354
       ],
       [
        -3.9322,
        55.8355
       ],
       [
        -3.9321,
        55.8356
       ],
       [
        -3.932,
        55.8356
       ],
       [
        -3.9319,
        55.8356
       ],
       [
        -3.9319,
        55.8357
       ],
       [
        -3.9318,
        55.8357
       ],
       [
        -3.9318,
        55.8358
       ],
       [
        -3.9318,
        55.8358
       ],
       [
        -3.9318,
        55.8359
       ],
       [
        -3.9318,
        55.836
       ],
       [
        -3.9318,
        55.8361
       ],
       [
        -3.9318,
        55.8362
       ],
       [
        -3.9319,
        55.8362
       ],
       [
        -3.9319,
        55.8363
       ],
       [
        -3.932,
        55.8364
       ],
       [
        -3.9321,
        55.8365
       ],
       [
        -3.9325,
        55.8366
       ],
       [
        -3.9345,
        55.8379
       ],
       [
        -3.9343,
        55.838
       ],
       [
        -3.9356,
        55.8388
       ],
       [
        -3.9358,
        55.8387
       ]
      ]
     ]
    ]
   },
   "properties": {
    "slug": "datavita-dv4",
    "reference": "26/00707/EIASCR",
    "local_auth": "North Lanarkshire",
    "application_type": "eia_screening",
    "is_primary": false,
    "official_area_m2": 140483,
    "source": "spatialhub_planning_applications_official",
    "source_id": "src-spatialhub-planning-applications",
    "licence": "OGL v3",
    "retrieved_date": "2026-07-30"
   }
  }
 ]
}
