{
 "type": "FeatureCollection",
 "features": [
  {
   "type": "Feature",
   "geometry": {
    "type": "MultiPolygon",
    "coordinates": [
     [
      [
       [
        -2.5129,
        55.7922
       ],
       [
        -2.5117,
        55.793
       ],
       [
        -2.5097,
        55.7942
       ],
       [
        -2.5086,
        55.7949
       ],
       [
        -2.5081,
        55.7954
       ],
       [
        -2.5073,
        55.7959
       ],
       [
        -2.5044,
        55.7967
       ],
       [
        -2.5018,
        55.7974
       ],
       [
        -2.5011,
        55.7978
       ],
       [
        -2.4994,
        55.7981
       ],
       [
        -2.4976,
        55.7984
       ],
       [
        -2.4967,
        55.7987
       ],
       [
        -2.4949,
        55.7997
       ],
       [
        -2.4925,
        55.8006
       ],
       [
        -2.491,
        55.8009
       ],
       [
        -2.487,
        55.8015
       ],
       [
        -2.4853,
        55.8018
       ],
       [
        -2.4841,
        55.8021
       ],
       [
        -2.4834,
        55.8023
       ],
       [
        -2.4837,
        55.8026
       ],
       [
        -2.4866,
        55.802
       ],
       [
        -2.4885,
        55.8016
       ],
       [
        -2.4922,
        55.801
       ],
       [
        -2.4939,
        55.8005
       ],
       [
        -2.496,
        55.7997
       ],
       [
        -2.4968,
        55.7992
       ],
       [
        -2.4977,
        55.7988
       ],
       [
        -2.4996,
        55.7984
       ],
       [
        -2.5009,
        55.7982
       ],
       [
        -2.5023,
        55.7977
       ],
       [
        -2.5077,
        55.7962
       ],
       [
        -2.5085,
        55.7959
       ],
       [
        -2.5091,
        55.7951
       ],
       [
        -2.5113,
        55.7937
       ],
       [
        -2.5131,
        55.7926
       ],
       [
        -2.515,
        55.7919
       ],
       [
        -2.5156,
        55.7918
       ],
       [
        -2.5158,
        55.7922
       ],
       [
        -2.5157,
        55.7924
       ],
       [
        -2.5159,
        55.7926
       ],
       [
        -2.5167,
        55.7924
       ],
       [
        -2.5178,
        55.7938
       ],
       [
        -2.5201,
        55.7935
       ],
       [
        -2.5209,
        55.7948
       ],
       [
        -2.5213,
        55.7963
       ],
       [
        -2.5204,
        55.7977
       ],
       [
        -2.5196,
        55.7981
       ],
       [
        -2.5195,
        55.7984
       ],
       [
        -2.5207,
        55.7981
       ],
       [
        -2.5219,
        55.7965
       ],
       [
        -2.5218,
        55.7956
       ],
       [
        -2.5214,
        55.7943
       ],
       [
        -2.5272,
        55.7947
       ],
       [
        -2.53,
        55.7953
       ],
       [
        -2.5314,
        55.7957
       ],
       [
        -2.5323,
        55.7957
       ],
       [
        -2.5333,
        55.7949
       ],
       [
        -2.5347,
        55.794
       ],
       [
        -2.5357,
        55.7938
       ],
       [
        -2.5371,
        55.794
       ],
       [
        -2.5412,
        55.7946
       ],
       [
        -2.5509,
        55.7945
       ],
       [
        -2.5571,
        55.7943
       ],
       [
        -2.5616,
        55.7944
       ],
       [
        -2.5639,
        55.7946
       ],
       [
        -2.5644,
        55.7948
       ],
       [
        -2.5646,
        55.7952
       ],
       [
        -2.5657,
        55.795
       ],
       [
        -2.5674,
        55.7905
       ],
       [
        -2.5691,
        55.7883
       ],
       [
        -2.5705,
        55.7874
       ],
       [
        -2.5705,
        55.7862
       ],
       [
        -2.5725,
        55.7848
       ],
       [
        -2.5736,
        55.7838
       ],
       [
        -2.5744,
        55.7825
       ],
       [
        -2.5743,
        55.7809
       ],
       [
        -2.5737,
        55.7793
       ],
       [
        -2.5735,
        55.7779
       ],
       [
        -2.5731,
        55.7746
       ],
       [
        -2.5731,
        55.772
       ],
       [
        -2.5732,
        55.7715
       ],
       [
        -2.5717,
        55.7692
       ],
       [
        -2.5716,
        55.7685
       ],
       [
        -2.5713,
        55.7679
       ],
       [
        -2.5714,
        55.7672
       ],
       [
        -2.5703,
        55.7656
       ],
       [
        -2.5704,
        55.763
       ],
       [
        -2.5703,
        55.7617
       ],
       [
        -2.5692,
        55.7607
       ],
       [
        -2.568,
        55.7599
       ],
       [
        -2.5678,
        55.758
       ],
       [
        -2.5681,
        55.7573
       ],
       [
        -2.5684,
        55.7567
       ],
       [
        -2.5691,
        55.7559
       ],
       [
        -2.5686,
        55.7557
       ],
       [
        -2.5674,
        55.7579
       ],
       [
        -2.5674,
        55.7585
       ],
       [
        -2.5676,
        55.7599
       ],
       [
        -2.5697,
        55.7614
       ],
       [
        -2.5698,
        55.7637
       ],
       [
        -2.5696,
        55.7655
       ],
       [
        -2.57,
        55.7664
       ],
       [
        -2.5709,
        55.7672
       ],
       [
        -2.5708,
        55.7681
       ],
       [
        -2.5712,
        55.7692
       ],
       [
        -2.5725,
        55.7716
       ],
       [
        -2.5723,
        55.7727
       ],
       [
        -2.5722,
        55.7734
       ],
       [
        -2.5726,
        55.7749
       ],
       [
        -2.5728,
        55.7777
       ],
       [
        -2.5731,
        55.7794
       ],
       [
        -2.5736,
        55.7808
       ],
       [
        -2.5738,
        55.7825
       ],
       [
        -2.5725,
        55.7841
       ],
       [
        -2.5716,
        55.7849
       ],
       [
        -2.5708,
        55.7853
       ],
       [
        -2.5698,
        55.7861
       ],
       [
        -2.5698,
        55.7872
       ],
       [
        -2.5692,
        55.7877
       ],
       [
        -2.5686,
        55.7881
       ],
       [
        -2.5671,
        55.79
       ],
       [
        -2.5668,
        55.7906
       ],
       [
        -2.5662,
        55.7917
       ],
       [
        -2.5655,
        55.794
       ],
       [
        -2.5653,
        55.7943
       ],
       [
        -2.5647,
        55.7944
       ],
       [
        -2.5638,
        55.7943
       ],
       [
        -2.5619,
        55.7941
       ],
       [
        -2.5586,
        55.794
       ],
       [
        -2.5513,
        55.7941
       ],
       [
        -2.5481,
        55.7942
       ],
       [
        -2.5426,
        55.7943
       ],
       [
        -2.5404,
        55.7941
       ],
       [
        -2.5379,
        55.7938
       ],
       [
        -2.5363,
        55.7935
       ],
       [
        -2.5357,
        55.7934
       ],
       [
        -2.5345,
        55.7936
       ],
       [
        -2.5325,
        55.7949
       ],
       [
        -2.5322,
        55.7953
       ],
       [
        -2.5316,
        55.7954
       ],
       [
        -2.5309,
        55.7952
       ],
       [
        -2.5287,
        55.7947
       ],
       [
        -2.5273,
        55.7944
       ],
       [
        -2.5246,
        55.7942
       ],
       [
        -2.5222,
        55.794
       ],
       [
        -2.5224,
        55.7939
       ],
       [
        -2.5259,
        55.7936
       ],
       [
        -2.5277,
        55.7934
       ],
       [
        -2.5361,
        55.7881
       ],
       [
        -2.537,
        55.7874
       ],
       [
        -2.5385,
        55.7865
       ],
       [
        -2.5401,
        55.7854
       ],
       [
        -2.5405,
        55.785
       ],
       [
        -2.5405,
        55.7846
       ],
       [
        -2.54,
        55.7841
       ],
       [
        -2.5393,
        55.7837
       ],
       [
        -2.5377,
        55.7835
       ],
       [
        -2.5361,
        55.7835
       ],
       [
        -2.5353,
        55.7837
       ],
       [
        -2.535,
        55.7837
       ],
       [
        -2.5334,
        55.7843
       ],
       [
        -2.5313,
        55.7854
       ],
       [
        -2.53,
        55.7859
       ],
       [
        -2.5286,
        55.7863
       ],
       [
        -2.5278,
        55.7863
       ],
       [
        -2.5274,
        55.786
       ],
       [
        -2.5261,
        55.7854
       ],
       [
        -2.522,
        55.7853
       ],
       [
        -2.5177,
        55.7857
       ],
       [
        -2.516,
        55.7859
       ],
       [
        -2.515,
        55.786
       ],
       [
        -2.5118,
        55.7868
       ],
       [
        -2.5096,
        55.7874
       ],
       [
        -2.5065,
        55.7886
       ],
       [
        -2.5051,
        55.7891
       ],
       [
        -2.5044,
        55.7891
       ],
       [
        -2.5042,
        55.7892
       ],
       [
        -2.4995,
        55.7885
       ],
       [
        -2.4961,
        55.7855
       ],
       [
        -2.4952,
        55.7851
       ],
       [
        -2.4946,
        55.7847
       ],
       [
        -2.4934,
        55.783
       ],
       [
        -2.4925,
        55.7826
       ],
       [
        -2.4911,
        55.7816
       ],
       [
        -2.4902,
        55.7807
       ],
       [
        -2.4894,
        55.7799
       ],
       [
        -2.4888,
        55.7796
       ],
       [
        -2.4878,
        55.7789
       ],
       [
        -2.4872,
        55.7784
       ],
       [
        -2.486,
        55.7768
       ],
       [
        -2.4848,
        55.7748
       ],
       [
        -2.4843,
        55.7739
       ],
       [
        -2.4833,
        55.773
       ],
       [
        -2.4819,
        55.7723
       ],
       [
        -2.4791,
        55.7701
       ],
       [
        -2.4778,
        55.769
       ],
       [
        -2.4771,
        55.7682
       ],
       [
        -2.4764,
        55.7673
       ],
       [
        -2.476,
        55.7666
       ],
       [
        -2.4755,
        55.7653
       ],
       [
        -2.4753,
        55.7634
       ],
       [
        -2.4755,
        55.7628
       ],
       [
        -2.4761,
        55.7621
       ],
       [
        -2.4769,
        55.7617
       ],
       [
        -2.4776,
        55.7608
       ],
       [
        -2.4778,
        55.7601
       ],
       [
        -2.4776,
        55.7592
       ],
       [
        -2.477,
        55.7592
       ],
       [
        -2.477,
        55.7606
       ],
       [
        -2.4762,
        55.7616
       ],
       [
        -2.4751,
        55.7623
       ],
       [
        -2.4747,
        55.7629
       ],
       [
        -2.4748,
        55.7651
       ],
       [
        -2.4755,
        55.7669
       ],
       [
        -2.4767,
        55.7686
       ],
       [
        -2.4773,
        55.7692
       ],
       [
        -2.4778,
        55.7695
       ],
       [
        -2.4782,
        55.7701
       ],
       [
        -2.4803,
        55.7717
       ],
       [
        -2.4817,
        55.7726
       ],
       [
        -2.4826,
        55.773
       ],
       [
        -2.4838,
        55.7739
       ],
       [
        -2.4842,
        55.7745
       ],
       [
        -2.4853,
        55.7765
       ],
       [
        -2.4864,
        55.7781
       ],
       [
        -2.4876,
        55.7794
       ],
       [
        -2.489,
        55.7801
       ],
       [
        -2.4896,
        55.7807
       ],
       [
        -2.4904,
        55.7818
       ],
       [
        -2.4927,
        55.7832
       ],
       [
        -2.4944,
        55.7852
       ],
       [
        -2.4952,
        55.7855
       ],
       [
        -2.4962,
        55.7862
       ],
       [
        -2.4981,
        55.7878
       ],
       [
        -2.499,
        55.7887
       ],
       [
        -2.4999,
        55.789
       ],
       [
        -2.501,
        55.7892
       ],
       [
        -2.5019,
        55.7892
       ],
       [
        -2.5038,
        55.7895
       ],
       [
        -2.5046,
        55.7896
       ],
       [
        -2.5077,
        55.7886
       ],
       [
        -2.5107,
        55.7874
       ],
       [
        -2.5119,
        55.7871
       ],
       [
        -2.5148,
        55.7864
       ],
       [
        -2.5187,
        55.7859
       ],
       [
        -2.5206,
        55.7857
       ],
       [
        -2.5258,
        55.7857
       ],
       [
        -2.5274,
        55.7866
       ],
       [
        -2.5272,
        55.7867
       ],
       [
        -2.5265,
        55.7868
       ],
       [
        -2.5262,
        55.7868
       ],
       [
        -2.5257,
        55.7868
       ],
       [
        -2.5252,
        55.7871
       ],
       [
        -2.5248,
        55.7871
       ],
       [
        -2.5244,
        55.7869
       ],
       [
        -2.5235,
        55.7869
       ],
       [
        -2.5229,
        55.7872
       ],
       [
        -2.5218,
        55.788
       ],
       [
        -2.5212,
        55.7883
       ],
       [
        -2.5206,
        55.789
       ],
       [
        -2.5202,
        55.789
       ],
       [
        -2.5196,
        55.7896
       ],
       [
        -2.5192,
        55.7896
       ],
       [
        -2.519,
        55.7895
       ],
       [
        -2.518,
        55.7897
       ],
       [
        -2.5175,
        55.7899
       ],
       [
        -2.5172,
        55.79
       ],
       [
        -2.5166,
        55.7906
       ],
       [
        -2.5158,
        55.7908
       ],
       [
        -2.5158,
        55.7912
       ],
       [
        -2.5155,
        55.7914
       ],
       [
        -2.514,
        55.7918
       ],
       [
        -2.5129,
        55.7922
       ]
      ]
     ]
    ]
   },
   "properties": {
    "slug": "duns-southside",
    "reference": "25/01835/SCR",
    "local_auth": "Scottish Borders",
    "application_type": "eia_screening",
    "is_primary": true,
    "official_area_m2": 1467421,
    "source": "spatialhub_planning_applications_official",
    "source_id": "src-spatialhub-planning-applications",
    "licence": "OGL v3",
    "retrieved_date": "2026-07-30"
   }
  }
 ]
}
